[
  {
    "id": 1,
    "address": "3611 Butler Dr",
    "latitude": 47.3245475,
    "longitude": -122.5866821,
    "city": "Gig Harbor",
    "state": "WA",
    "zipCode": "98335",
    "fullAddress": "3611 Butler Dr, Gig Harbor, WA 98335",
    "geocoded": true
  },
  {
    "id": 2,
    "address": "9116 Goodman Ave",
    "latitude": 47.341224,
    "longitude": -122.5880873,
    "city": "Gig Harbor",
    "state": "WA",
    "zipCode": "98332",
    "fullAddress": "9116 Goodman Ave, Gig Harbor, WA 98332",
    "geocoded": true
  },
  {
    "id": 3,
    "address": "3702 Hunt St #19",
    "latitude": 47.3161217,
    "longitude": -122.5890294,
    "city": "Gig Harbor",
    "state": "WA",
    "zipCode": "98335",
    "fullAddress": "3702 Hunt St #19, Gig Harbor, WA 98335",
    "geocoded": true
  },
  {
    "id": 4,
    "address": "112 Aqua Vista Dr NW",
    "latitude": 47.336116313898025,
    "longitude": -122.5717555166272,
    "city": "Gig Harbor",
    "state": "WA",
    "zipCode": "98335",
    "fullAddress": "112 Aqua Vista Dr NW, Gig Harbor, WA 98335",
    "geocoded": false
  },
  {
    "id": 5,
    "address": "4302 Berg Dr NW",
    "latitude": 47.3305309611756,
    "longitude": -122.57356692634986,
    "city": "Gig Harbor",
    "state": "WA",
    "zipCode": "98335",
    "fullAddress": "4302 Berg Dr NW, Gig Harbor, WA 98335",
    "geocoded": false
  },
  {
    "id": 6,
    "address": "2301 Point View Place NW",
    "latitude": 47.337429849115345,
    "longitude": -122.58252449549825,
    "city": "Gig Harbor",
    "state": "WA",
    "zipCode": "98335",
    "fullAddress": "2301 Point View Place NW, Gig Harbor, WA 98335",
    "geocoded": false
  },
  {
    "id": 7,
    "address": "10311 106th Av Ct",
    "latitude": 47.27319698660424,
    "longitude": -122.43551950836243,
    "city": "Anderson Island",
    "state": "WA",
    "zipCode": "10311",
    "fullAddress": "10311 106th Av Ct, Anderson Island, WA 98303",
    "geocoded": false
  },
  {
    "id": 8,
    "address": "5125 N Defiance St",
    "latitude": 47.2991991,
    "longitude": -122.5180017,
    "city": "Tacoma",
    "state": "WA",
    "zipCode": "98407",
    "fullAddress": "5125 N Defiance St, Tacoma, WA 98407",
    "geocoded": true
  },
  {
    "id": 9,
    "address": "4642 N Defiance St",
    "latitude": 47.2923611,
    "longitude": -122.5186514,
    "city": "Tacoma",
    "state": "WA",
    "zipCode": "98407",
    "fullAddress": "4642 N Defiance St, Tacoma, WA 98407",
    "geocoded": true
  },
  {
    "id": 10,
    "address": "5718 N 48th St",
    "latitude": 47.2928206,
    "longitude": -122.5150565,
    "city": "Tacoma",
    "state": "WA",
    "zipCode": "98407",
    "fullAddress": "5718 N 48th St, Tacoma, WA 98407",
    "geocoded": true
  },
  {
    "id": 11,
    "address": "5117 N Bristol St",
    "latitude": 47.2988245,
    "longitude": -122.5192862,
    "city": "Tacoma",
    "state": "WA",
    "zipCode": "98407",
    "fullAddress": "5117 N Bristol St, Tacoma, WA 98407",
    "geocoded": true
  },
  {
    "id": 12,
    "address": "3302 N Whitman St",
    "latitude": 47.2774397,
    "longitude": -122.5220817,
    "city": "Tacoma",
    "state": "WA",
    "zipCode": "98407",
    "fullAddress": "3302 N Whitman St, Tacoma, WA 98407",
    "geocoded": true
  },
  {
    "id": 13,
    "address": "4936 N Lexington St",
    "latitude": 47.2959337,
    "longitude": -122.5253992,
    "city": "Tacoma",
    "state": "WA",
    "zipCode": "98407",
    "fullAddress": "4936 N Lexington St, Tacoma, WA 98407",
    "geocoded": true
  },
  {
    "id": 14,
    "address": "5115 N Ruby St",
    "latitude": 47.2941519,
    "longitude": -122.5058718,
    "city": "Tacoma",
    "state": "WA",
    "zipCode": "98407",
    "fullAddress": "5115 N Ruby St, Tacoma, WA 98407",
    "geocoded": true
  },
  {
    "id": 15,
    "address": "4808 N Lexington St",
    "latitude": 47.2933971,
    "longitude": -122.5259488,
    "city": "Tacoma",
    "state": "WA",
    "zipCode": "98407",
    "fullAddress": "4808 N Lexington St, Tacoma, WA 98407",
    "geocoded": true
  },
  {
    "id": 16,
    "address": "4632 N Lexington St",
    "latitude": 47.2920534,
    "longitude": -122.5253479,
    "city": "Tacoma",
    "state": "WA",
    "zipCode": "98407",
    "fullAddress": "4632 N Lexington St, Tacoma, WA 98407",
    "geocoded": true
  },
  {
    "id": 17,
    "address": "6701 N 49th St",
    "latitude": 47.2947748,
    "longitude": -122.5266243,
    "city": "Tacoma",
    "state": "WA",
    "zipCode": "98407",
    "fullAddress": "6701 N 49th St, Tacoma, WA 98407",
    "geocoded": true
  },
  {
    "id": 18,
    "address": "4705 N Ferdinand St",
    "latitude": 47.2922098,
    "longitude": -122.5021497,
    "city": "Tacoma",
    "state": "WA",
    "zipCode": "98407",
    "fullAddress": "4705 N Ferdinand St, Tacoma, WA 98407",
    "geocoded": true
  },
  {
    "id": 19,
    "address": "5013 N 47th St",
    "latitude": 47.2921414,
    "longitude": -122.5046388,
    "city": "Tacoma",
    "state": "WA",
    "zipCode": "98407",
    "fullAddress": "5013 N 47th St, Tacoma, WA 98407",
    "geocoded": true
  },
  {
    "id": 20,
    "address": "5019 N 47th St",
    "latitude": 47.2921505,
    "longitude": -122.504845,
    "city": "Tacoma",
    "state": "WA",
    "zipCode": "98407",
    "fullAddress": "5019 N 47th St, Tacoma, WA 98407",
    "geocoded": true
  },
  {
    "id": 21,
    "address": "3142 N Cheyenne St",
    "latitude": 47.2774457,
    "longitude": -122.4989237,
    "city": "Tacoma",
    "state": "WA",
    "zipCode": "98407",
    "fullAddress": "3142 N Cheyenne St, Tacoma, WA 98407",
    "geocoded": true
  },
  {
    "id": 22,
    "address": "4121 N Huson St",
    "latitude": 47.2867174,
    "longitude": -122.5035156,
    "city": "Tacoma",
    "state": "WA",
    "zipCode": "98407",
    "fullAddress": "4121 N Huson St, Tacoma, WA 98407",
    "geocoded": true
  },
  {
    "id": 23,
    "address": "3117 N Mullen St",
    "latitude": 47.2766391,
    "longitude": -122.5009148,
    "city": "Tacoma",
    "state": "WA",
    "zipCode": "98407",
    "fullAddress": "3117 N Mullen St, Tacoma, WA 98407",
    "geocoded": true
  },
  {
    "id": 24,
    "address": "3709 N Cheyenne St",
    "latitude": 47.2824576,
    "longitude": -122.4983072,
    "city": "Tacoma",
    "state": "WA",
    "zipCode": "98407",
    "fullAddress": "3709 N Cheyenne St, Tacoma, WA 98407",
    "geocoded": true
  },
  {
    "id": 25,
    "address": "4615 N Huson St",
    "latitude": 47.2912404,
    "longitude": -122.5034942,
    "city": "Tacoma",
    "state": "WA",
    "zipCode": "98407",
    "fullAddress": "4615 N Huson St, Tacoma, WA 98407",
    "geocoded": true
  },
  {
    "id": 26,
    "address": "4401 N 32nd St",
    "latitude": 47.2770575,
    "longitude": -122.4964296,
    "city": "Tacoma",
    "state": "WA",
    "zipCode": "98407",
    "fullAddress": "4401 N 32nd St, Tacoma, WA 98407",
    "geocoded": true
  },
  {
    "id": 27,
    "address": "3917 N Mullen St",
    "latitude": 47.2853329,
    "longitude": -122.5008667,
    "city": "Tacoma",
    "state": "WA",
    "zipCode": "98407",
    "fullAddress": "3917 N Mullen St, Tacoma, WA 98407",
    "geocoded": true
  },
  {
    "id": 28,
    "address": "3509 N Verde St",
    "latitude": 47.2800463,
    "longitude": -122.4970383,
    "city": "Tacoma",
    "state": "WA",
    "zipCode": "98407",
    "fullAddress": "3509 N Verde St, Tacoma, WA 98407",
    "geocoded": true
  },
  {
    "id": 29,
    "address": "3402 N Madison St",
    "latitude": 47.2788078,
    "longitude": -122.490853,
    "city": "Tacoma",
    "state": "WA",
    "zipCode": "98407",
    "fullAddress": "3402 N Madison St, Tacoma, WA 98407",
    "geocoded": true
  },
  {
    "id": 30,
    "address": "3924 N Cheyenne St",
    "latitude": 47.2854976,
    "longitude": -122.4988356,
    "city": "Tacoma",
    "state": "WA",
    "zipCode": "98407",
    "fullAddress": "3924 N Cheyenne St, Tacoma, WA 98407",
    "geocoded": true
  },
  {
    "id": 31,
    "address": "3912 N Stevens St",
    "latitude": 47.2850139,
    "longitude": -122.4963157,
    "city": "Tacoma",
    "state": "WA",
    "zipCode": "98407",
    "fullAddress": "3912 N Stevens St, Tacoma, WA 98407",
    "geocoded": true
  },
  {
    "id": 32,
    "address": "4102 N 27th St",
    "latitude": 47.2718001,
    "longitude": -122.492004,
    "city": "Tacoma",
    "state": "WA",
    "zipCode": "98407",
    "fullAddress": "4102 N 27th St, Tacoma, WA 98407",
    "geocoded": true
  },
  {
    "id": 33,
    "address": "4101 N 27th St",
    "latitude": 47.2722255,
    "longitude": -122.4919949,
    "city": "Tacoma",
    "state": "WA",
    "zipCode": "98407",
    "fullAddress": "4101 N 27th St, Tacoma, WA 98407",
    "geocoded": true
  },
  {
    "id": 34,
    "address": "352 N Mason Ave",
    "latitude": 47.2857929,
    "longitude": -122.4946283,
    "city": "Tacoma",
    "state": "WA",
    "zipCode": "98407",
    "fullAddress": "352 N Mason Ave, Tacoma, WA 98407",
    "geocoded": true
  },
  {
    "id": 35,
    "address": "392 N Mullen St",
    "latitude": 47.284878,
    "longitude": -122.5011778,
    "city": "Tacoma",
    "state": "WA",
    "zipCode": "98407",
    "fullAddress": "392 N Mullen St, Tacoma, WA 98407",
    "geocoded": true
  },
  {
    "id": 36,
    "address": "4107 N 36th St",
    "latitude": 47.2807313,
    "longitude": -122.492519,
    "city": "Tacoma",
    "state": "WA",
    "zipCode": "98407",
    "fullAddress": "4107 N 36th St, Tacoma, WA 98407",
    "geocoded": true
  },
  {
    "id": 37,
    "address": "4617 N Huson St",
    "latitude": 47.2913815,
    "longitude": -122.503512,
    "city": "Tacoma",
    "state": "WA",
    "zipCode": "98407",
    "fullAddress": "4617 N Huson St, Tacoma, WA 98407",
    "geocoded": true
  },
  {
    "id": 38,
    "address": "4404 N Stevens St",
    "latitude": 47.2889964,
    "longitude": -122.496297,
    "city": "Tacoma",
    "state": "WA",
    "zipCode": "98407",
    "fullAddress": "4404 N Stevens St, Tacoma, WA 98407",
    "geocoded": true
  },
  {
    "id": 39,
    "address": "3516 N Huson St",
    "latitude": 47.2802564,
    "longitude": -122.504191,
    "city": "Tacoma",
    "state": "WA",
    "zipCode": "98407",
    "fullAddress": "3516 N Huson St, Tacoma, WA 98407",
    "geocoded": true
  },
  {
    "id": 40,
    "address": "431 N 36th St",
    "latitude": 47.2805514,
    "longitude": -122.4969661,
    "city": "Tacoma",
    "state": "WA",
    "zipCode": "98407",
    "fullAddress": "431 N 36th St, Tacoma, WA 98407",
    "geocoded": true
  },
  {
    "id": 41,
    "address": "4102 N 36th St",
    "latitude": 47.2802868,
    "longitude": -122.492308,
    "city": "Tacoma",
    "state": "WA",
    "zipCode": "98407",
    "fullAddress": "4102 N 36th St, Tacoma, WA 98407",
    "geocoded": true
  },
  {
    "id": 42,
    "address": "352 N Ferdinand St",
    "latitude": 47.2796316,
    "longitude": -122.502517,
    "city": "Tacoma",
    "state": "WA",
    "zipCode": "98407",
    "fullAddress": "352 N Ferdinand St, Tacoma, WA 98407",
    "geocoded": true
  },
  {
    "id": 43,
    "address": "4314 N Huson St",
    "latitude": 47.2888466,
    "longitude": -122.504145,
    "city": "Tacoma",
    "state": "WA",
    "zipCode": "98407",
    "fullAddress": "4314 N Huson St, Tacoma, WA 98407",
    "geocoded": true
  },
  {
    "id": 44,
    "address": "2402 N Madison St",
    "latitude": 47.2694155,
    "longitude": -122.490608,
    "city": "Tacoma",
    "state": "WA",
    "zipCode": "98406",
    "fullAddress": "2402 N Madison St, Tacoma, WA 98406",
    "geocoded": true
  },
  {
    "id": 45,
    "address": "3928 N 30th St",
    "latitude": 47.2745856,
    "longitude": -122.4905354,
    "city": "Tacoma",
    "state": "WA",
    "zipCode": "98407",
    "fullAddress": "3928 N 30th St, Tacoma, WA 98407",
    "geocoded": true
  },
  {
    "id": 46,
    "address": "3519 N Union Ave #2",
    "latitude": 47.2802525,
    "longitude": -122.4834555,
    "city": "Tacoma",
    "state": "WA",
    "zipCode": "98407",
    "fullAddress": "3519 N Union Ave #2, Tacoma, WA 98407",
    "geocoded": true
  },
  {
    "id": 47,
    "address": "3516 N Proctor St",
    "latitude": 47.2801058,
    "longitude": -122.4891165,
    "city": "Tacoma",
    "state": "WA",
    "zipCode": "98407",
    "fullAddress": "3516 N Proctor St, Tacoma, WA 98407",
    "geocoded": true
  },
  {
    "id": 48,
    "address": "2712 N Puget Sound Ave",
    "latitude": 47.2725085,
    "longitude": -122.4829555,
    "city": "Tacoma",
    "state": "WA",
    "zipCode": "98407",
    "fullAddress": "2712 N Puget Sound Ave, Tacoma, WA 98407",
    "geocoded": true
  },
  {
    "id": 49,
    "address": "4106 N 36th St",
    "latitude": 47.2802893,
    "longitude": -122.4925285,
    "city": "Tacoma",
    "state": "WA",
    "zipCode": "98407",
    "fullAddress": "4106 N 36th St, Tacoma, WA 98407",
    "geocoded": true
  },
  {
    "id": 50,
    "address": "4211 N 26th St",
    "latitude": 47.2713165,
    "longitude": -122.4938357,
    "city": "Tacoma",
    "state": "WA",
    "zipCode": "98407",
    "fullAddress": "4211 N 26th St, Tacoma, WA 98407",
    "geocoded": true
  },
  {
    "id": 51,
    "address": "4102 N 36th St",
    "latitude": 47.2802868,
    "longitude": -122.492308,
    "city": "Tacoma",
    "state": "WA",
    "zipCode": "98407",
    "fullAddress": "4102 N 36th St, Tacoma, WA 98407",
    "geocoded": true
  },
  {
    "id": 52,
    "address": "262 N Puget Sound Ave",
    "latitude": 47.2795446,
    "longitude": -122.4825642,
    "city": "Tacoma",
    "state": "WA",
    "zipCode": "98407",
    "fullAddress": "262 N Puget Sound Ave, Tacoma, WA 98407",
    "geocoded": true
  },
  {
    "id": 53,
    "address": "4524 N Verde St",
    "latitude": 47.2903135,
    "longitude": -122.497636,
    "city": "Tacoma",
    "state": "WA",
    "zipCode": "98407",
    "fullAddress": "4524 N Verde St, Tacoma, WA 98407",
    "geocoded": true
  },
  {
    "id": 54,
    "address": "4418 N 33rd St",
    "latitude": 47.2775543,
    "longitude": -122.4971518,
    "city": "Tacoma",
    "state": "WA",
    "zipCode": "98407",
    "fullAddress": "4418 N 33rd St, Tacoma, WA 98407",
    "geocoded": true
  },
  {
    "id": 55,
    "address": "3634 N Stevens St",
    "latitude": 47.2817699,
    "longitude": -122.4964522,
    "city": "Tacoma",
    "state": "WA",
    "zipCode": "98407",
    "fullAddress": "3634 N Stevens St, Tacoma, WA 98407",
    "geocoded": true
  },
  {
    "id": 56,
    "address": "3508 N Gove St",
    "latitude": 47.2799266,
    "longitude": -122.5002181,
    "city": "Tacoma",
    "state": "WA",
    "zipCode": "98407",
    "fullAddress": "3508 N Gove St, Tacoma, WA 98407",
    "geocoded": true
  },
  {
    "id": 57,
    "address": "3408 N 37th St",
    "latitude": 47.2810585,
    "longitude": -122.481524,
    "city": "Tacoma",
    "state": "WA",
    "zipCode": "98407",
    "fullAddress": "3408 N 37th St, Tacoma, WA 98407",
    "geocoded": true
  },
  {
    "id": 58,
    "address": "412 N Madrona Wy",
    "latitude": 47.2862449,
    "longitude": -122.4935069,
    "city": "Tacoma",
    "state": "WA",
    "zipCode": "98407",
    "fullAddress": "412 N Madrona Wy, Tacoma, WA 98407",
    "geocoded": true
  },
  {
    "id": 59,
    "address": "472 N Huson St",
    "latitude": 47.2695779,
    "longitude": -122.5038356,
    "city": "Tacoma",
    "state": "WA",
    "zipCode": "98407",
    "fullAddress": "472 N Huson St, Tacoma, WA 98407",
    "geocoded": true
  },
  {
    "id": 60,
    "address": "3712 N Mullen St",
    "latitude": 47.2825237,
    "longitude": -122.501505,
    "city": "Tacoma",
    "state": "WA",
    "zipCode": "98407",
    "fullAddress": "3712 N Mullen St, Tacoma, WA 98407",
    "geocoded": true
  },
  {
    "id": 61,
    "address": "363 N Stevens St",
    "latitude": 47.2825779,
    "longitude": -122.4963063,
    "city": "Tacoma",
    "state": "WA",
    "zipCode": "98407",
    "fullAddress": "363 N Stevens St, Tacoma, WA 98407",
    "geocoded": true
  },
  {
    "id": 62,
    "address": "332 N Union Ave",
    "latitude": 47.2819134,
    "longitude": -122.4842145,
    "city": "Tacoma",
    "state": "WA",
    "zipCode": "98407",
    "fullAddress": "332 N Union Ave, Tacoma, WA 98407",
    "geocoded": true
  },
  {
    "id": 63,
    "address": "412 N Madrona Wy",
    "latitude": 47.2862449,
    "longitude": -122.4935069,
    "city": "Tacoma",
    "state": "WA",
    "zipCode": "98407",
    "fullAddress": "412 N Madrona Wy, Tacoma, WA 98407",
    "geocoded": true
  },
  {
    "id": 64,
    "address": "2102 N 26th St",
    "latitude": 47.2707421,
    "longitude": -122.4638985,
    "city": "Tacoma",
    "state": "WA",
    "zipCode": "98403",
    "fullAddress": "2102 N 26th St, Tacoma, WA 98403",
    "geocoded": true
  },
  {
    "id": 65,
    "address": "3725 N 24th St",
    "latitude": 47.2694635,
    "longitude": -122.487036,
    "city": "Tacoma",
    "state": "WA",
    "zipCode": "98406",
    "fullAddress": "3725 N 24th St, Tacoma, WA 98406",
    "geocoded": true
  },
  {
    "id": 66,
    "address": "4401 N 19th St",
    "latitude": 47.2666307,
    "longitude": -122.4964469,
    "city": "Tacoma",
    "state": "WA",
    "zipCode": "98406",
    "fullAddress": "4401 N 19th St, Tacoma, WA 98406",
    "geocoded": true
  },
  {
    "id": 67,
    "address": "2621 N Union Ave",
    "latitude": 47.2713537,
    "longitude": -122.4842174,
    "city": "Tacoma",
    "state": "WA",
    "zipCode": "98407",
    "fullAddress": "2621 N Union Ave, Tacoma, WA 98407",
    "geocoded": true
  },
  {
    "id": 68,
    "address": "2119 N Lawrence St",
    "latitude": 47.268059,
    "longitude": -122.4791325,
    "city": "Tacoma",
    "state": "WA",
    "zipCode": "98406",
    "fullAddress": "2119 N Lawrence St, Tacoma, WA 98406",
    "geocoded": true
  },
  {
    "id": 69,
    "address": "3508 N 24th St",
    "latitude": 47.2690195,
    "longitude": -122.4831629,
    "city": "Tacoma",
    "state": "WA",
    "zipCode": "98406",
    "fullAddress": "3508 N 24th St, Tacoma, WA 98406",
    "geocoded": true
  },
  {
    "id": 70,
    "address": "2912 N Lawrence St",
    "latitude": 47.2743807,
    "longitude": -122.4796779,
    "city": "Tacoma",
    "state": "WA",
    "zipCode": "98407",
    "fullAddress": "2912 N Lawrence St, Tacoma, WA 98407",
    "geocoded": true
  },
  {
    "id": 71,
    "address": "2107 N Adams St",
    "latitude": 47.2677322,
    "longitude": -122.4869856,
    "city": "Tacoma",
    "state": "WA",
    "zipCode": "98406",
    "fullAddress": "2107 N Adams St, Tacoma, WA 98406",
    "geocoded": true
  },
  {
    "id": 72,
    "address": "3805 N 21st St",
    "latitude": 47.2675531,
    "longitude": -122.487743,
    "city": "Tacoma",
    "state": "WA",
    "zipCode": "98406",
    "fullAddress": "3805 N 21st St, Tacoma, WA 98406",
    "geocoded": true
  },
  {
    "id": 73,
    "address": "3408 N 24th St",
    "latitude": 47.2689736,
    "longitude": -122.4815742,
    "city": "Tacoma",
    "state": "WA",
    "zipCode": "98406",
    "fullAddress": "3408 N 24th St, Tacoma, WA 98406",
    "geocoded": true
  },
  {
    "id": 74,
    "address": "2402 N Washington St",
    "latitude": 47.2694172,
    "longitude": -122.4859733,
    "city": "Tacoma",
    "state": "WA",
    "zipCode": "98406",
    "fullAddress": "2402 N Washington St, Tacoma, WA 98406",
    "geocoded": true
  },
  {
    "id": 75,
    "address": "2614 N Junett St",
    "latitude": 47.2715809,
    "longitude": -122.4749815,
    "city": "Tacoma",
    "state": "WA",
    "zipCode": "98407",
    "fullAddress": "2614 N Junett St, Tacoma, WA 98407",
    "geocoded": true
  },
  {
    "id": 76,
    "address": "3419 N 24th St",
    "latitude": 47.2694288,
    "longitude": -122.4821836,
    "city": "Tacoma",
    "state": "WA",
    "zipCode": "98406",
    "fullAddress": "3419 N 24th St, Tacoma, WA 98406",
    "geocoded": true
  },
  {
    "id": 77,
    "address": "331 N 30th St",
    "latitude": 47.2749176,
    "longitude": -122.5060597,
    "city": "Tacoma",
    "state": "WA",
    "zipCode": "98407",
    "fullAddress": "331 N 30th St, Tacoma, WA 98407",
    "geocoded": true
  },
  {
    "id": 78,
    "address": "2912 N 26th St",
    "latitude": 47.2707894,
    "longitude": -122.4738165,
    "city": "Tacoma",
    "state": "WA",
    "zipCode": "98407",
    "fullAddress": "2912 N 26th St, Tacoma, WA 98407",
    "geocoded": true
  },
  {
    "id": 79,
    "address": "2116 N 27th St",
    "latitude": 47.2717425,
    "longitude": -122.4646393,
    "city": "Tacoma",
    "state": "WA",
    "zipCode": "98403",
    "fullAddress": "2116 N 27th St, Tacoma, WA 98403",
    "geocoded": true
  },
  {
    "id": 80,
    "address": "3222 N 24th St",
    "latitude": 47.2689993,
    "longitude": -122.4791617,
    "city": "Tacoma",
    "state": "WA",
    "zipCode": "98406",
    "fullAddress": "3222 N 24th St, Tacoma, WA 98406",
    "geocoded": true
  },
  {
    "id": 81,
    "address": "3324 N 26th St",
    "latitude": 47.2708466,
    "longitude": -122.4806893,
    "city": "Tacoma",
    "state": "WA",
    "zipCode": "98407",
    "fullAddress": "3324 N 26th St, Tacoma, WA 98407",
    "geocoded": true
  },
  {
    "id": 82,
    "address": "2612 N Puget Sound Ave",
    "latitude": 47.2715585,
    "longitude": -122.4829786,
    "city": "Tacoma",
    "state": "WA",
    "zipCode": "98407",
    "fullAddress": "2612 N Puget Sound Ave, Tacoma, WA 98407",
    "geocoded": true
  },
  {
    "id": 83,
    "address": "2511 McCarver St",
    "latitude": 47.270428,
    "longitude": -122.4649497,
    "city": "Tacoma",
    "state": "WA",
    "zipCode": "98403",
    "fullAddress": "2511 McCarver St, Tacoma, WA 98403",
    "geocoded": true
  },
  {
    "id": 84,
    "address": "3419 N 22nd St",
    "latitude": 47.268518,
    "longitude": -122.482125,
    "city": "Tacoma",
    "state": "WA",
    "zipCode": "98406",
    "fullAddress": "3419 N 22nd St, Tacoma, WA 98406",
    "geocoded": true
  },
  {
    "id": 85,
    "address": "3806 N 24th St",
    "latitude": 47.2689809,
    "longitude": -122.4877407,
    "city": "Tacoma",
    "state": "WA",
    "zipCode": "98406",
    "fullAddress": "3806 N 24th St, Tacoma, WA 98406",
    "geocoded": true
  },
  {
    "id": 86,
    "address": "3706 N Adams St",
    "latitude": 47.281772,
    "longitude": -122.4875845,
    "city": "Tacoma",
    "state": "WA",
    "zipCode": "98407",
    "fullAddress": "3706 N Adams St, Tacoma, WA 98407",
    "geocoded": true
  },
  {
    "id": 87,
    "address": "3211 N 21st St",
    "latitude": 47.2677459,
    "longitude": -122.4785174,
    "city": "Tacoma",
    "state": "WA",
    "zipCode": "98406",
    "fullAddress": "3211 N 21st St, Tacoma, WA 98406",
    "geocoded": true
  },
  {
    "id": 88,
    "address": "3311 N 36th St",
    "latitude": 47.280692,
    "longitude": -122.4800625,
    "city": "Tacoma",
    "state": "WA",
    "zipCode": "98407",
    "fullAddress": "3311 N 36th St, Tacoma, WA 98407",
    "geocoded": true
  },
  {
    "id": 89,
    "address": "3412 N 27th St",
    "latitude": 47.2717769,
    "longitude": -122.4817855,
    "city": "Tacoma",
    "state": "WA",
    "zipCode": "98407",
    "fullAddress": "3412 N 27th St, Tacoma, WA 98407",
    "geocoded": true
  },
  {
    "id": 90,
    "address": "2411 N Lawrence St",
    "latitude": 47.2697426,
    "longitude": -122.4791148,
    "city": "Tacoma",
    "state": "WA",
    "zipCode": "98406",
    "fullAddress": "2411 N Lawrence St, Tacoma, WA 98406",
    "geocoded": true
  },
  {
    "id": 91,
    "address": "3115 N 27th St",
    "latitude": 47.2722143,
    "longitude": -122.4770213,
    "city": "Tacoma",
    "state": "WA",
    "zipCode": "98407",
    "fullAddress": "3115 N 27th St, Tacoma, WA 98407",
    "geocoded": true
  },
  {
    "id": 92,
    "address": "3407 N 24th St",
    "latitude": 47.269484,
    "longitude": -122.4815978,
    "city": "Tacoma",
    "state": "WA",
    "zipCode": "98406",
    "fullAddress": "3407 N 24th St, Tacoma, WA 98406",
    "geocoded": true
  },
  {
    "id": 93,
    "address": "2511 N Junett St",
    "latitude": 47.2706789,
    "longitude": -122.4744105,
    "city": "Tacoma",
    "state": "WA",
    "zipCode": "98406",
    "fullAddress": "2511 N Junett St, Tacoma, WA 98406",
    "geocoded": true
  },
  {
    "id": 94,
    "address": "2716 N 29th St",
    "latitude": 47.2735342,
    "longitude": -122.4726263,
    "city": "Tacoma",
    "state": "WA",
    "zipCode": "98407",
    "fullAddress": "2716 N 29th St, Tacoma, WA 98407",
    "geocoded": true
  },
  {
    "id": 95,
    "address": "102 East Rd",
    "latitude": 47.2721173,
    "longitude": -122.4698211,
    "city": "Tacoma",
    "state": "WA",
    "zipCode": "98406",
    "fullAddress": "102 East Rd, Tacoma, WA 98406",
    "geocoded": true
  },
  {
    "id": 96,
    "address": "212 N Anderson St",
    "latitude": 47.2623757,
    "longitude": -122.472762,
    "city": "Tacoma",
    "state": "WA",
    "zipCode": "98406",
    "fullAddress": "212 N Anderson St, Tacoma, WA 98406",
    "geocoded": true
  },
  {
    "id": 97,
    "address": "372 N 24th St",
    "latitude": 47.2692111,
    "longitude": -122.4890702,
    "city": "Tacoma",
    "state": "WA",
    "zipCode": "98406",
    "fullAddress": "372 N 24th St, Tacoma, WA 98406",
    "geocoded": true
  },
  {
    "id": 98,
    "address": "2909 N Lawrence St",
    "latitude": 47.2741195,
    "longitude": -122.4790189,
    "city": "Tacoma",
    "state": "WA",
    "zipCode": "98407",
    "fullAddress": "2909 N Lawrence St, Tacoma, WA 98407",
    "geocoded": true
  },
  {
    "id": 99,
    "address": "2901 N Cedar St",
    "latitude": 47.274045,
    "longitude": -122.475936,
    "city": "Tacoma",
    "state": "WA",
    "zipCode": "98407",
    "fullAddress": "2901 N Cedar St, Tacoma, WA 98407",
    "geocoded": true
  },
  {
    "id": 100,
    "address": "2712 N 30th St",
    "latitude": 47.2744344,
    "longitude": -122.4722915,
    "city": "Tacoma",
    "state": "WA",
    "zipCode": "98407",
    "fullAddress": "2712 N 30th St, Tacoma, WA 98407",
    "geocoded": true
  },
  {
    "id": 101,
    "address": "72 6th Ave #305",
    "latitude": 47.2554475,
    "longitude": -122.4713534,
    "city": "Tacoma",
    "state": "WA",
    "zipCode": "98405",
    "fullAddress": "72 6th Ave #305, Tacoma, WA 98405",
    "geocoded": true
  },
  {
    "id": 102,
    "address": "218 Broadway #7",
    "latitude": 47.2623095,
    "longitude": -122.4446881,
    "city": "Tacoma",
    "state": "WA",
    "zipCode": "98402",
    "fullAddress": "218 Broadway #7, Tacoma, WA 98402",
    "geocoded": true
  },
  {
    "id": 103,
    "address": "1 Broadway S #207",
    "latitude": 47.24395002468859,
    "longitude": -122.45291154153705,
    "city": "Tacoma",
    "state": "WA",
    "zipCode": "98402",
    "fullAddress": "1 Broadway S #207, Tacoma, WA 98402",
    "geocoded": false
  },
  {
    "id": 104,
    "address": "525 Broadway #408",
    "latitude": 47.2592185,
    "longitude": -122.4416594,
    "city": "Tacoma",
    "state": "WA",
    "zipCode": "98402",
    "fullAddress": "525 Broadway #408, Tacoma, WA 98402",
    "geocoded": true
  },
  {
    "id": 105,
    "address": "235 Broadway #400",
    "latitude": 47.2616404,
    "longitude": -122.4432845,
    "city": "Tacoma",
    "state": "WA",
    "zipCode": "98402",
    "fullAddress": "235 Broadway #400, Tacoma, WA 98402",
    "geocoded": true
  },
  {
    "id": 106,
    "address": "25 N Broadway #303",
    "latitude": 47.2646978,
    "longitude": -122.4468639,
    "city": "Tacoma",
    "state": "WA",
    "zipCode": "98403",
    "fullAddress": "25 N Broadway #303, Tacoma, WA 98403",
    "geocoded": true
  },
  {
    "id": 107,
    "address": "1418 S 5th St",
    "latitude": 47.2576052,
    "longitude": -122.4577754,
    "city": "Tacoma",
    "state": "WA",
    "zipCode": "98405",
    "fullAddress": "1418 S 5th St, Tacoma, WA 98405",
    "geocoded": true
  },
  {
    "id": 108,
    "address": "601 Fawcett Ave",
    "latitude": 47.258136,
    "longitude": -122.444438,
    "city": "Tacoma",
    "state": "WA",
    "zipCode": "98402",
    "fullAddress": "601 Fawcett Ave, Tacoma, WA 98402",
    "geocoded": true
  },
  {
    "id": 109,
    "address": "418 N L St #6",
    "latitude": 47.2606319,
    "longitude": -122.4575575,
    "city": "Tacoma",
    "state": "WA",
    "zipCode": "98403",
    "fullAddress": "418 N L St #6, Tacoma, WA 98403",
    "geocoded": true
  },
  {
    "id": 110,
    "address": "422 N L St #22-1",
    "latitude": 47.2606258,
    "longitude": -122.4577841,
    "city": "Tacoma",
    "state": "WA",
    "zipCode": "98403",
    "fullAddress": "422 N L St #22-1, Tacoma, WA 98403",
    "geocoded": true
  },
  {
    "id": 111,
    "address": "102 N M St",
    "latitude": 47.2613477,
    "longitude": -122.4622782,
    "city": "Tacoma",
    "state": "WA",
    "zipCode": "98403",
    "fullAddress": "102 N M St, Tacoma, WA 98403",
    "geocoded": true
  },
  {
    "id": 112,
    "address": "415 N J St",
    "latitude": 47.2627954,
    "longitude": -122.4558027,
    "city": "Tacoma",
    "state": "WA",
    "zipCode": "98403",
    "fullAddress": "415 N J St, Tacoma, WA 98403",
    "geocoded": true
  },
  {
    "id": 113,
    "address": "1417 Division Ave",
    "latitude": 47.2584871,
    "longitude": -122.4587616,
    "city": "Tacoma",
    "state": "WA",
    "zipCode": "98403",
    "fullAddress": "1417 Division Ave, Tacoma, WA 98403",
    "geocoded": true
  },
  {
    "id": 114,
    "address": "1112 N 5th St",
    "latitude": 47.2612955,
    "longitude": -122.4573188,
    "city": "Tacoma",
    "state": "WA",
    "zipCode": "98403",
    "fullAddress": "1112 N 5th St, Tacoma, WA 98403",
    "geocoded": true
  },
  {
    "id": 115,
    "address": "1015 N Ainsworth Ave",
    "latitude": 47.2601007,
    "longitude": -122.4678556,
    "city": "Tacoma",
    "state": "WA",
    "zipCode": "98403",
    "fullAddress": "1015 N Ainsworth Ave, Tacoma, WA 98403",
    "geocoded": true
  },
  {
    "id": 116,
    "address": "1414 N 6th St",
    "latitude": 47.2590326,
    "longitude": -122.460568,
    "city": "Tacoma",
    "state": "WA",
    "zipCode": "98403",
    "fullAddress": "1414 N 6th St, Tacoma, WA 98403",
    "geocoded": true
  },
  {
    "id": 117,
    "address": "1502 N 10th St",
    "latitude": 47.2603069,
    "longitude": -122.4664292,
    "city": "Tacoma",
    "state": "WA",
    "zipCode": "98403",
    "fullAddress": "1502 N 10th St, Tacoma, WA 98403",
    "geocoded": true
  },
  {
    "id": 118,
    "address": "61 N 11th St",
    "latitude": 47.2666194,
    "longitude": -122.4640067,
    "city": "Tacoma",
    "state": "WA",
    "zipCode": "98403",
    "fullAddress": "61 N 11th St, Tacoma, WA 98403",
    "geocoded": true
  },
  {
    "id": 119,
    "address": "516 N Cushman Ave",
    "latitude": 47.2583665,
    "longitude": -122.4605885,
    "city": "Tacoma",
    "state": "WA",
    "zipCode": "98403",
    "fullAddress": "516 N Cushman Ave, Tacoma, WA 98403",
    "geocoded": true
  },
  {
    "id": 120,
    "address": "909 N I St #403",
    "latitude": 47.2658732,
    "longitude": -122.4617605,
    "city": "Tacoma",
    "state": "WA",
    "zipCode": "98403",
    "fullAddress": "909 N I St #403, Tacoma, WA 98403",
    "geocoded": true
  },
  {
    "id": 121,
    "address": "1102 N M St",
    "latitude": 47.2626305,
    "longitude": -122.4671084,
    "city": "Tacoma",
    "state": "WA",
    "zipCode": "98403",
    "fullAddress": "1102 N M St, Tacoma, WA 98403",
    "geocoded": true
  },
  {
    "id": 122,
    "address": "909 N Sheridan Ave",
    "latitude": 47.2614219,
    "longitude": -122.4650219,
    "city": "Tacoma",
    "state": "WA",
    "zipCode": "98403",
    "fullAddress": "909 N Sheridan Ave, Tacoma, WA 98403",
    "geocoded": true
  },
  {
    "id": 123,
    "address": "1413 N 6th St",
    "latitude": 47.2592327,
    "longitude": -122.461053,
    "city": "Tacoma",
    "state": "WA",
    "zipCode": "98403",
    "fullAddress": "1413 N 6th St, Tacoma, WA 98403",
    "geocoded": true
  },
  {
    "id": 124,
    "address": "309 N 4th St",
    "latitude": 47.2683511,
    "longitude": -122.451169,
    "city": "Tacoma",
    "state": "WA",
    "zipCode": "98403",
    "fullAddress": "309 N 4th St, Tacoma, WA 98403",
    "geocoded": true
  },
  {
    "id": 125,
    "address": "1011 G St",
    "latitude": 47.2681001,
    "longitude": -122.4620288,
    "city": "Tacoma",
    "state": "WA",
    "zipCode": "98403",
    "fullAddress": "1011 G St, Tacoma, WA 98403",
    "geocoded": true
  },
  {
    "id": 126,
    "address": "627 N Carr St",
    "latitude": 47.2694479,
    "longitude": -122.4665439,
    "city": "Tacoma",
    "state": "WA",
    "zipCode": "98403",
    "fullAddress": "627 N Carr St, Tacoma, WA 98403",
    "geocoded": true
  },
  {
    "id": 127,
    "address": "818 N G St",
    "latitude": 47.2669079,
    "longitude": -122.4598286,
    "city": "Tacoma",
    "state": "WA",
    "zipCode": "98403",
    "fullAddress": "818 N G St, Tacoma, WA 98403",
    "geocoded": true
  },
  {
    "id": 128,
    "address": "618 N Yakima Ave",
    "latitude": 47.2650601,
    "longitude": -122.4578543,
    "city": "Tacoma",
    "state": "WA",
    "zipCode": "98403",
    "fullAddress": "618 N Yakima Ave, Tacoma, WA 98403",
    "geocoded": true
  },
  {
    "id": 129,
    "address": "207 Broadway #700",
    "latitude": 47.2623532,
    "longitude": -122.4444435,
    "city": "Tacoma",
    "state": "WA",
    "zipCode": "98402",
    "fullAddress": "207 Broadway #700, Tacoma, WA 98402",
    "geocoded": true
  },
  {
    "id": 130,
    "address": "2514 N Starr St",
    "latitude": 47.2702729,
    "longitude": -122.464017,
    "city": "Tacoma",
    "state": "WA",
    "zipCode": "98403",
    "fullAddress": "2514 N Starr St, Tacoma, WA 98403",
    "geocoded": true
  },
  {
    "id": 131,
    "address": "301 N 5th St",
    "latitude": 47.2689575,
    "longitude": -122.4526177,
    "city": "Tacoma",
    "state": "WA",
    "zipCode": "98403",
    "fullAddress": "301 N 5th St, Tacoma, WA 98403",
    "geocoded": true
  },
  {
    "id": 132,
    "address": "1025 N Oakes St",
    "latitude": 47.2595012,
    "longitude": -122.4713225,
    "city": "Tacoma",
    "state": "WA",
    "zipCode": "98406",
    "fullAddress": "1025 N Oakes St, Tacoma, WA 98406",
    "geocoded": true
  },
  {
    "id": 133,
    "address": "81 N Pine St",
    "latitude": 47.2615013,
    "longitude": -122.4733937,
    "city": "Tacoma",
    "state": "WA",
    "zipCode": "98406",
    "fullAddress": "81 N Pine St, Tacoma, WA 98406",
    "geocoded": true
  },
  {
    "id": 134,
    "address": "1206 N Washington St",
    "latitude": 47.261156,
    "longitude": -122.4859721,
    "city": "Tacoma",
    "state": "WA",
    "zipCode": "98406",
    "fullAddress": "1206 N Washington St, Tacoma, WA 98406",
    "geocoded": true
  },
  {
    "id": 135,
    "address": "1126 N Prospect St",
    "latitude": 47.2607494,
    "longitude": -122.469605,
    "city": "Tacoma",
    "state": "WA",
    "zipCode": "98406",
    "fullAddress": "1126 N Prospect St, Tacoma, WA 98406",
    "geocoded": true
  },
  {
    "id": 136,
    "address": "1217 N Prospect St",
    "latitude": 47.2617709,
    "longitude": -122.4689938,
    "city": "Tacoma",
    "state": "WA",
    "zipCode": "98406",
    "fullAddress": "1217 N Prospect St, Tacoma, WA 98406",
    "geocoded": true
  },
  {
    "id": 137,
    "address": "2711 N 17th St",
    "latitude": 47.2650982,
    "longitude": -122.472334,
    "city": "Tacoma",
    "state": "WA",
    "zipCode": "98406",
    "fullAddress": "2711 N 17th St, Tacoma, WA 98406",
    "geocoded": true
  },
  {
    "id": 138,
    "address": "1717 N Fife St",
    "latitude": 47.2656308,
    "longitude": -122.4701571,
    "city": "Tacoma",
    "state": "WA",
    "zipCode": "98406",
    "fullAddress": "1717 N Fife St, Tacoma, WA 98406",
    "geocoded": true
  },
  {
    "id": 139,
    "address": "2216 N Warner St",
    "latitude": 47.2688523,
    "longitude": -122.4812738,
    "city": "Tacoma",
    "state": "WA",
    "zipCode": "98406",
    "fullAddress": "2216 N Warner St, Tacoma, WA 98406",
    "geocoded": true
  },
  {
    "id": 140,
    "address": "2909 N 14th St",
    "latitude": 47.2630616,
    "longitude": -122.4739372,
    "city": "Tacoma",
    "state": "WA",
    "zipCode": "98406",
    "fullAddress": "2909 N 14th St, Tacoma, WA 98406",
    "geocoded": true
  },
  {
    "id": 141,
    "address": "1502 N Union Ave",
    "latitude": 47.2638635,
    "longitude": -122.4845847,
    "city": "Tacoma",
    "state": "WA",
    "zipCode": "98406",
    "fullAddress": "1502 N Union Ave, Tacoma, WA 98406",
    "geocoded": true
  },
  {
    "id": 142,
    "address": "1718 N Fife St",
    "latitude": 47.2656279,
    "longitude": -122.4707016,
    "city": "Tacoma",
    "state": "WA",
    "zipCode": "98406",
    "fullAddress": "1718 N Fife St, Tacoma, WA 98406",
    "geocoded": true
  },
  {
    "id": 143,
    "address": "623 N Oakes St",
    "latitude": 47.2563339,
    "longitude": -122.4711081,
    "city": "Tacoma",
    "state": "WA",
    "zipCode": "98406",
    "fullAddress": "623 N Oakes St, Tacoma, WA 98406",
    "geocoded": true
  },
  {
    "id": 144,
    "address": "2017 N Cedar St",
    "latitude": 47.2673463,
    "longitude": -122.4759693,
    "city": "Tacoma",
    "state": "WA",
    "zipCode": "98406",
    "fullAddress": "2017 N Cedar St, Tacoma, WA 98406",
    "geocoded": true
  },
  {
    "id": 145,
    "address": "3008 N 13th St",
    "latitude": 47.2615755,
    "longitude": -122.4753446,
    "city": "Tacoma",
    "state": "WA",
    "zipCode": "98406",
    "fullAddress": "3008 N 13th St, Tacoma, WA 98406",
    "geocoded": true
  },
  {
    "id": 146,
    "address": "1002 N Junett St",
    "latitude": 47.2591659,
    "longitude": -122.4750686,
    "city": "Tacoma",
    "state": "WA",
    "zipCode": "98406",
    "fullAddress": "1002 N Junett St, Tacoma, WA 98406",
    "geocoded": true
  },
  {
    "id": 147,
    "address": "3423 N 19th St",
    "latitude": 47.2666557,
    "longitude": -122.4823543,
    "city": "Tacoma",
    "state": "WA",
    "zipCode": "98406",
    "fullAddress": "3423 N 19th St, Tacoma, WA 98406",
    "geocoded": true
  },
  {
    "id": 148,
    "address": "1718 N Fife St",
    "latitude": 47.2656279,
    "longitude": -122.4707016,
    "city": "Tacoma",
    "state": "WA",
    "zipCode": "98406",
    "fullAddress": "1718 N Fife St, Tacoma, WA 98406",
    "geocoded": true
  },
  {
    "id": 149,
    "address": "1102 N Junett St",
    "latitude": 47.2600975,
    "longitude": -122.4751454,
    "city": "Tacoma",
    "state": "WA",
    "zipCode": "98406",
    "fullAddress": "1102 N Junett St, Tacoma, WA 98406",
    "geocoded": true
  },
  {
    "id": 150,
    "address": "916 N Cedar St",
    "latitude": 47.2585357,
    "longitude": -122.476594,
    "city": "Tacoma",
    "state": "WA",
    "zipCode": "98406",
    "fullAddress": "916 N Cedar St, Tacoma, WA 98406",
    "geocoded": true
  },
  {
    "id": 151,
    "address": "1128 N Prospect St",
    "latitude": 47.2608654,
    "longitude": -122.4695998,
    "city": "Tacoma",
    "state": "WA",
    "zipCode": "98406",
    "fullAddress": "1128 N Prospect St, Tacoma, WA 98406",
    "geocoded": true
  },
  {
    "id": 152,
    "address": "3317 N 24th St",
    "latitude": 47.2694353,
    "longitude": -122.4805078,
    "city": "Tacoma",
    "state": "WA",
    "zipCode": "98406",
    "fullAddress": "3317 N 24th St, Tacoma, WA 98406",
    "geocoded": true
  },
  {
    "id": 153,
    "address": "1119 N Oakes St",
    "latitude": 47.2605776,
    "longitude": -122.471305,
    "city": "Tacoma",
    "state": "WA",
    "zipCode": "98406",
    "fullAddress": "1119 N Oakes St, Tacoma, WA 98406",
    "geocoded": true
  },
  {
    "id": 154,
    "address": "1118 N Oakes St",
    "latitude": 47.2605212,
    "longitude": -122.471943,
    "city": "Tacoma",
    "state": "WA",
    "zipCode": "98406",
    "fullAddress": "1118 N Oakes St, Tacoma, WA 98406",
    "geocoded": true
  },
  {
    "id": 155,
    "address": "1502 N Union Ave",
    "latitude": 47.2638635,
    "longitude": -122.4845847,
    "city": "Tacoma",
    "state": "WA",
    "zipCode": "98406",
    "fullAddress": "1502 N Union Ave, Tacoma, WA 98406",
    "geocoded": true
  },
  {
    "id": 156,
    "address": "302 N 10th St",
    "latitude": 47.2704242,
    "longitude": -122.4601779,
    "city": "Tacoma",
    "state": "WA",
    "zipCode": "98406",
    "fullAddress": "302 N 10th St, Tacoma, WA 98406",
    "geocoded": true
  },
  {
    "id": 157,
    "address": "1109 N Cedar St",
    "latitude": 47.2602879,
    "longitude": -122.4759858,
    "city": "Tacoma",
    "state": "WA",
    "zipCode": "98406",
    "fullAddress": "1109 N Cedar St, Tacoma, WA 98406",
    "geocoded": true
  },
  {
    "id": 158,
    "address": "1017 N Junett St",
    "latitude": 47.2596391,
    "longitude": -122.4744989,
    "city": "Tacoma",
    "state": "WA",
    "zipCode": "98406",
    "fullAddress": "1017 N Junett St, Tacoma, WA 98406",
    "geocoded": true
  },
  {
    "id": 159,
    "address": "3119 N 20th St",
    "latitude": 47.2668433,
    "longitude": -122.4773097,
    "city": "Tacoma",
    "state": "WA",
    "zipCode": "98406",
    "fullAddress": "3119 N 20th St, Tacoma, WA 98406",
    "geocoded": true
  },
  {
    "id": 160,
    "address": "1007 N Ferdinand St",
    "latitude": 47.2593738,
    "longitude": -122.5020611,
    "city": "Tacoma",
    "state": "WA",
    "zipCode": "98406",
    "fullAddress": "1007 N Ferdinand St, Tacoma, WA 98406",
    "geocoded": true
  },
  {
    "id": 161,
    "address": "4523 N 14th St",
    "latitude": 47.262914,
    "longitude": -122.4989905,
    "city": "Tacoma",
    "state": "WA",
    "zipCode": "98406",
    "fullAddress": "4523 N 14th St, Tacoma, WA 98406",
    "geocoded": true
  },
  {
    "id": 162,
    "address": "3911 N 9th St",
    "latitude": 47.2582542,
    "longitude": -122.4896163,
    "city": "Tacoma",
    "state": "WA",
    "zipCode": "98406",
    "fullAddress": "3911 N 9th St, Tacoma, WA 98406",
    "geocoded": true
  },
  {
    "id": 163,
    "address": "3614 N 9th St",
    "latitude": 47.2577814,
    "longitude": -122.484465,
    "city": "Tacoma",
    "state": "WA",
    "zipCode": "98406",
    "fullAddress": "3614 N 9th St, Tacoma, WA 98406",
    "geocoded": true
  },
  {
    "id": 164,
    "address": "4833 N 7th St",
    "latitude": 47.2564547,
    "longitude": -122.5025906,
    "city": "Tacoma",
    "state": "WA",
    "zipCode": "98406",
    "fullAddress": "4833 N 7th St, Tacoma, WA 98406",
    "geocoded": true
  },
  {
    "id": 165,
    "address": "3008 N Mason Ave",
    "latitude": 47.2752955,
    "longitude": -122.494949,
    "city": "Tacoma",
    "state": "WA",
    "zipCode": "98407",
    "fullAddress": "3008 N Mason Ave, Tacoma, WA 98407",
    "geocoded": true
  },
  {
    "id": 166,
    "address": "4015 N 18th St",
    "latitude": 47.2657,
    "longitude": -122.4912906,
    "city": "Tacoma",
    "state": "WA",
    "zipCode": "98406",
    "fullAddress": "4015 N 18th St, Tacoma, WA 98406",
    "geocoded": true
  },
  {
    "id": 167,
    "address": "4817 N 7th St",
    "latitude": 47.2564696,
    "longitude": -122.5017832,
    "city": "Tacoma",
    "state": "WA",
    "zipCode": "98406",
    "fullAddress": "4817 N 7th St, Tacoma, WA 98406",
    "geocoded": true
  },
  {
    "id": 168,
    "address": "4618 N 19th St",
    "latitude": 47.266177,
    "longitude": -122.5003231,
    "city": "Tacoma",
    "state": "WA",
    "zipCode": "98406",
    "fullAddress": "4618 N 19th St, Tacoma, WA 98406",
    "geocoded": true
  },
  {
    "id": 169,
    "address": "4307 N 9th St",
    "latitude": 47.2582755,
    "longitude": -122.4953053,
    "city": "Tacoma",
    "state": "WA",
    "zipCode": "98406",
    "fullAddress": "4307 N 9th St, Tacoma, WA 98406",
    "geocoded": true
  },
  {
    "id": 170,
    "address": "4506 N 15th St",
    "latitude": 47.2634093,
    "longitude": -122.4981916,
    "city": "Tacoma",
    "state": "WA",
    "zipCode": "98406",
    "fullAddress": "4506 N 15th St, Tacoma, WA 98406",
    "geocoded": true
  },
  {
    "id": 171,
    "address": "1607 N Verde St",
    "latitude": 47.2649746,
    "longitude": -122.49744,
    "city": "Tacoma",
    "state": "WA",
    "zipCode": "98406",
    "fullAddress": "1607 N Verde St, Tacoma, WA 98406",
    "geocoded": true
  },
  {
    "id": 172,
    "address": "4909 N 16th St",
    "latitude": 47.2647764,
    "longitude": -122.5030795,
    "city": "Tacoma",
    "state": "WA",
    "zipCode": "98406",
    "fullAddress": "4909 N 16th St, Tacoma, WA 98406",
    "geocoded": true
  },
  {
    "id": 173,
    "address": "4522 N 16th St",
    "latitude": 47.2643247,
    "longitude": -122.4990027,
    "city": "Tacoma",
    "state": "WA",
    "zipCode": "98406",
    "fullAddress": "4522 N 16th St, Tacoma, WA 98406",
    "geocoded": true
  },
  {
    "id": 174,
    "address": "2731 N Highland St",
    "latitude": 47.273673,
    "longitude": -122.5127778,
    "city": "Tacoma",
    "state": "WA",
    "zipCode": "98407",
    "fullAddress": "2731 N Highland St, Tacoma, WA 98407",
    "geocoded": true
  },
  {
    "id": 175,
    "address": "451 N 7th St",
    "latitude": 47.2686842,
    "longitude": -122.4558997,
    "city": "Tacoma",
    "state": "WA",
    "zipCode": "98406",
    "fullAddress": "451 N 7th St, Tacoma, WA 98406",
    "geocoded": true
  },
  {
    "id": 176,
    "address": "451 N 10th St",
    "latitude": 47.269845,
    "longitude": -122.460404,
    "city": "Tacoma",
    "state": "WA",
    "zipCode": "98406",
    "fullAddress": "451 N 10th St, Tacoma, WA 98406",
    "geocoded": true
  },
  {
    "id": 177,
    "address": "442 N 27th St",
    "latitude": 47.2722583,
    "longitude": -122.5297447,
    "city": "Tacoma",
    "state": "WA",
    "zipCode": "98407",
    "fullAddress": "442 N 27th St, Tacoma, WA 98407",
    "geocoded": true
  },
  {
    "id": 178,
    "address": "4016 N 7TH St",
    "latitude": 47.2560063,
    "longitude": -122.4914102,
    "city": "Tacoma",
    "state": "WA",
    "zipCode": "98406",
    "fullAddress": "4016 N 7TH St, Tacoma, WA 98406",
    "geocoded": true
  },
  {
    "id": 179,
    "address": "822 N Stevens St",
    "latitude": 47.257907,
    "longitude": -122.4962809,
    "city": "Tacoma",
    "state": "WA",
    "zipCode": "98406",
    "fullAddress": "822 N Stevens St, Tacoma, WA 98406",
    "geocoded": true
  },
  {
    "id": 180,
    "address": "4517 N 8th St",
    "latitude": 47.2573188,
    "longitude": -122.498801,
    "city": "Tacoma",
    "state": "WA",
    "zipCode": "98406",
    "fullAddress": "4517 N 8th St, Tacoma, WA 98406",
    "geocoded": true
  },
  {
    "id": 181,
    "address": "4817 N 8th St",
    "latitude": 47.2573107,
    "longitude": -122.5017216,
    "city": "Tacoma",
    "state": "WA",
    "zipCode": "98406",
    "fullAddress": "4817 N 8th St, Tacoma, WA 98406",
    "geocoded": true
  },
  {
    "id": 182,
    "address": "4802 N 19th St",
    "latitude": 47.2661975,
    "longitude": -122.5010524,
    "city": "Tacoma",
    "state": "WA",
    "zipCode": "98406",
    "fullAddress": "4802 N 19th St, Tacoma, WA 98406",
    "geocoded": true
  },
  {
    "id": 183,
    "address": "3911 N 8th St",
    "latitude": 47.2572428,
    "longitude": -122.489535,
    "city": "Tacoma",
    "state": "WA",
    "zipCode": "98406",
    "fullAddress": "3911 N 8th St, Tacoma, WA 98406",
    "geocoded": true
  },
  {
    "id": 184,
    "address": "4517 N 22nd St",
    "latitude": 47.2684886,
    "longitude": -122.4987938,
    "city": "Tacoma",
    "state": "WA",
    "zipCode": "98406",
    "fullAddress": "4517 N 22nd St, Tacoma, WA 98406",
    "geocoded": true
  },
  {
    "id": 185,
    "address": "2724 N Mason Ave",
    "latitude": 47.2728569,
    "longitude": -122.4949958,
    "city": "Tacoma",
    "state": "WA",
    "zipCode": "98407",
    "fullAddress": "2724 N Mason Ave, Tacoma, WA 98407",
    "geocoded": true
  },
  {
    "id": 186,
    "address": "4209 N 16th St",
    "latitude": 47.2648131,
    "longitude": -122.4938077,
    "city": "Tacoma",
    "state": "WA",
    "zipCode": "98406",
    "fullAddress": "4209 N 16th St, Tacoma, WA 98406",
    "geocoded": true
  },
  {
    "id": 187,
    "address": "4618 N 19th St",
    "latitude": 47.266177,
    "longitude": -122.5003231,
    "city": "Tacoma",
    "state": "WA",
    "zipCode": "98406",
    "fullAddress": "4618 N 19th St, Tacoma, WA 98406",
    "geocoded": true
  },
  {
    "id": 188,
    "address": "4015 N 21st St",
    "latitude": 47.2674197,
    "longitude": -122.4906096,
    "city": "Tacoma",
    "state": "WA",
    "zipCode": "98406",
    "fullAddress": "4015 N 21st St, Tacoma, WA 98406",
    "geocoded": true
  },
  {
    "id": 189,
    "address": "2713 N Stevens St",
    "latitude": 47.2724859,
    "longitude": -122.4958892,
    "city": "Tacoma",
    "state": "WA",
    "zipCode": "98407",
    "fullAddress": "2713 N Stevens St, Tacoma, WA 98407",
    "geocoded": true
  },
  {
    "id": 190,
    "address": "4219 N 19th St",
    "latitude": 47.2666131,
    "longitude": -122.494229,
    "city": "Tacoma",
    "state": "WA",
    "zipCode": "98406",
    "fullAddress": "4219 N 19th St, Tacoma, WA 98406",
    "geocoded": true
  },
  {
    "id": 191,
    "address": "4318 N 29th St",
    "latitude": 47.2737089,
    "longitude": -122.4956154,
    "city": "Tacoma",
    "state": "WA",
    "zipCode": "98407",
    "fullAddress": "4318 N 29th St, Tacoma, WA 98407",
    "geocoded": true
  },
  {
    "id": 192,
    "address": "4111 N 9th St",
    "latitude": 47.2582775,
    "longitude": -122.4923663,
    "city": "Tacoma",
    "state": "WA",
    "zipCode": "98406",
    "fullAddress": "4111 N 9th St, Tacoma, WA 98406",
    "geocoded": true
  },
  {
    "id": 193,
    "address": "4212 N 24th St",
    "latitude": 47.2689477,
    "longitude": -122.4940057,
    "city": "Tacoma",
    "state": "WA",
    "zipCode": "98406",
    "fullAddress": "4212 N 24th St, Tacoma, WA 98406",
    "geocoded": true
  },
  {
    "id": 194,
    "address": "112 N Mullen St",
    "latitude": 47.2599499,
    "longitude": -122.500772,
    "city": "Tacoma",
    "state": "WA",
    "zipCode": "98406",
    "fullAddress": "112 N Mullen St, Tacoma, WA 98406",
    "geocoded": true
  },
  {
    "id": 195,
    "address": "81 N Proctor St",
    "latitude": 47.2636308,
    "longitude": -122.4888716,
    "city": "Tacoma",
    "state": "WA",
    "zipCode": "98406",
    "fullAddress": "81 N Proctor St, Tacoma, WA 98406",
    "geocoded": true
  },
  {
    "id": 196,
    "address": "3725 N 9th St",
    "latitude": 47.2582933,
    "longitude": -122.4869881,
    "city": "Tacoma",
    "state": "WA",
    "zipCode": "98406",
    "fullAddress": "3725 N 9th St, Tacoma, WA 98406",
    "geocoded": true
  },
  {
    "id": 197,
    "address": "4622 N 12th St",
    "latitude": 47.260647,
    "longitude": -122.5004832,
    "city": "Tacoma",
    "state": "WA",
    "zipCode": "98406",
    "fullAddress": "4622 N 12th St, Tacoma, WA 98406",
    "geocoded": true
  },
  {
    "id": 198,
    "address": "4914 N 19th St",
    "latitude": 47.2661501,
    "longitude": -122.5031823,
    "city": "Tacoma",
    "state": "WA",
    "zipCode": "98406",
    "fullAddress": "4914 N 19th St, Tacoma, WA 98406",
    "geocoded": true
  },
  {
    "id": 199,
    "address": "4502 N 13th St",
    "latitude": 47.2615368,
    "longitude": -122.4979806,
    "city": "Tacoma",
    "state": "WA",
    "zipCode": "98406",
    "fullAddress": "4502 N 13th St, Tacoma, WA 98406",
    "geocoded": true
  },
  {
    "id": 200,
    "address": "1418 N Winnifred St",
    "latitude": 47.2635468,
    "longitude": -122.5122769,
    "city": "Tacoma",
    "state": "WA",
    "zipCode": "98406",
    "fullAddress": "1418 N Winnifred St, Tacoma, WA 98406",
    "geocoded": true
  },
  {
    "id": 201,
    "address": "4321 N 13th St",
    "latitude": 47.2620136,
    "longitude": -122.4959069,
    "city": "Tacoma",
    "state": "WA",
    "zipCode": "98406",
    "fullAddress": "4321 N 13th St, Tacoma, WA 98406",
    "geocoded": true
  },
  {
    "id": 202,
    "address": "2815 N Cheyenne St",
    "latitude": 47.2736103,
    "longitude": -122.4989634,
    "city": "Tacoma",
    "state": "WA",
    "zipCode": "98407",
    "fullAddress": "2815 N Cheyenne St, Tacoma, WA 98407",
    "geocoded": true
  },
  {
    "id": 203,
    "address": "4302 N 19th St",
    "latitude": 47.2661782,
    "longitude": -122.4950778,
    "city": "Tacoma",
    "state": "WA",
    "zipCode": "98406",
    "fullAddress": "4302 N 19th St, Tacoma, WA 98406",
    "geocoded": true
  },
  {
    "id": 204,
    "address": "4017 N 9th St",
    "latitude": 47.2582685,
    "longitude": -122.4913962,
    "city": "Tacoma",
    "state": "WA",
    "zipCode": "98406",
    "fullAddress": "4017 N 9th St, Tacoma, WA 98406",
    "geocoded": true
  },
  {
    "id": 205,
    "address": "4821 N 27th St",
    "latitude": 47.2722718,
    "longitude": -122.5020662,
    "city": "Tacoma",
    "state": "WA",
    "zipCode": "98407",
    "fullAddress": "4821 N 27th St, Tacoma, WA 98407",
    "geocoded": true
  },
  {
    "id": 206,
    "address": "1819 N Vassault St",
    "latitude": 47.2672461,
    "longitude": -122.5208977,
    "city": "Tacoma",
    "state": "WA",
    "zipCode": "98406",
    "fullAddress": "1819 N Vassault St, Tacoma, WA 98406",
    "geocoded": true
  },
  {
    "id": 207,
    "address": "1801 N Villard St",
    "latitude": 47.2657106,
    "longitude": -122.5063384,
    "city": "Tacoma",
    "state": "WA",
    "zipCode": "98406",
    "fullAddress": "1801 N Villard St, Tacoma, WA 98406",
    "geocoded": true
  },
  {
    "id": 208,
    "address": "5315 N 18th St",
    "latitude": 47.2657041,
    "longitude": -122.5089136,
    "city": "Tacoma",
    "state": "WA",
    "zipCode": "98406",
    "fullAddress": "5315 N 18th St, Tacoma, WA 98406",
    "geocoded": true
  },
  {
    "id": 209,
    "address": "6314 N 23rd St",
    "latitude": 47.2687332,
    "longitude": -122.5221453,
    "city": "Tacoma",
    "state": "WA",
    "zipCode": "98406",
    "fullAddress": "6314 N 23rd St, Tacoma, WA 98406",
    "geocoded": true
  },
  {
    "id": 210,
    "address": "602 N Highlands Pkwy #22",
    "latitude": 47.2640254,
    "longitude": -122.5230003,
    "city": "Tacoma",
    "state": "WA",
    "zipCode": "98406",
    "fullAddress": "602 N Highlands Pkwy #22, Tacoma, WA 98406",
    "geocoded": true
  },
  {
    "id": 211,
    "address": "3708 N Commencement Bay Dr",
    "latitude": 47.297544275712944,
    "longitude": -122.48070878857892,
    "city": "Tacoma",
    "state": "WA",
    "zipCode": "98407",
    "fullAddress": "3708 N Commencement Bay Dr, Tacoma, WA 98407",
    "geocoded": false
  },
  {
    "id": 212,
    "address": "622 N Howard St",
    "latitude": 47.2558005,
    "longitude": -122.5300869,
    "city": "Tacoma",
    "state": "WA",
    "zipCode": "98406",
    "fullAddress": "622 N Howard St, Tacoma, WA 98406",
    "geocoded": true
  },
  {
    "id": 213,
    "address": "1207 N Huson St",
    "latitude": 47.2612161,
    "longitude": -122.5035199,
    "city": "Tacoma",
    "state": "WA",
    "zipCode": "98406",
    "fullAddress": "1207 N Huson St, Tacoma, WA 98406",
    "geocoded": true
  },
  {
    "id": 214,
    "address": "1311 N Highlands Pkwy #2",
    "latitude": 47.263234,
    "longitude": -122.5226864,
    "city": "Tacoma",
    "state": "WA",
    "zipCode": "98406",
    "fullAddress": "1311 N Highlands Pkwy #2, Tacoma, WA 98406",
    "geocoded": true
  },
  {
    "id": 215,
    "address": "1322 N Cascade Ave",
    "latitude": 47.2625717,
    "longitude": -122.5388313,
    "city": "Tacoma",
    "state": "WA",
    "zipCode": "98406",
    "fullAddress": "1322 N Cascade Ave, Tacoma, WA 98406",
    "geocoded": true
  },
  {
    "id": 216,
    "address": "1121 N Lenore Dr",
    "latitude": 47.2626914,
    "longitude": -122.5288103,
    "city": "Tacoma",
    "state": "WA",
    "zipCode": "98406",
    "fullAddress": "1121 N Lenore Dr, Tacoma, WA 98406",
    "geocoded": true
  },
  {
    "id": 217,
    "address": "6414 N 23rd St",
    "latitude": 47.2687569,
    "longitude": -122.5234644,
    "city": "Tacoma",
    "state": "WA",
    "zipCode": "98406",
    "fullAddress": "6414 N 23rd St, Tacoma, WA 98406",
    "geocoded": true
  },
  {
    "id": 218,
    "address": "2536 N Narrows Dr #27",
    "latitude": 47.2720722,
    "longitude": -122.5262268,
    "city": "Tacoma",
    "state": "WA",
    "zipCode": "98406",
    "fullAddress": "2536 N Narrows Dr #27, Tacoma, WA 98406",
    "geocoded": true
  },
  {
    "id": 219,
    "address": "1211 N Newton St",
    "latitude": 47.2610445,
    "longitude": -122.523092,
    "city": "Tacoma",
    "state": "WA",
    "zipCode": "98406",
    "fullAddress": "1211 N Newton St, Tacoma, WA 98406",
    "geocoded": true
  },
  {
    "id": 220,
    "address": "1137 N James St",
    "latitude": 47.2613728,
    "longitude": -122.534155,
    "city": "Tacoma",
    "state": "WA",
    "zipCode": "98406",
    "fullAddress": "1137 N James St, Tacoma, WA 98406",
    "geocoded": true
  },
  {
    "id": 221,
    "address": "6408 N 32nd St",
    "latitude": 47.2757411,
    "longitude": -122.5223336,
    "city": "Tacoma",
    "state": "WA",
    "zipCode": "98407",
    "fullAddress": "6408 N 32nd St, Tacoma, WA 98407",
    "geocoded": true
  },
  {
    "id": 222,
    "address": "1857 N Hawthorne Dr",
    "latitude": 47.2680849,
    "longitude": -122.5276042,
    "city": "Tacoma",
    "state": "WA",
    "zipCode": "98406",
    "fullAddress": "1857 N Hawthorne Dr, Tacoma, WA 98406",
    "geocoded": true
  },
  {
    "id": 223,
    "address": "1853 N Skyline Dr",
    "latitude": 47.2680725,
    "longitude": -122.5302379,
    "city": "Tacoma",
    "state": "WA",
    "zipCode": "98406",
    "fullAddress": "1853 N Skyline Dr, Tacoma, WA 98406",
    "geocoded": true
  },
  {
    "id": 224,
    "address": "1837 N Skyline Dr",
    "latitude": 47.2674584,
    "longitude": -122.5302101,
    "city": "Tacoma",
    "state": "WA",
    "zipCode": "98406",
    "fullAddress": "1837 N Skyline Dr, Tacoma, WA 98406",
    "geocoded": true
  },
  {
    "id": 225,
    "address": "919 N Winnifred St",
    "latitude": 47.2588693,
    "longitude": -122.5119302,
    "city": "Tacoma",
    "state": "WA",
    "zipCode": "98406",
    "fullAddress": "919 N Winnifred St, Tacoma, WA 98406",
    "geocoded": true
  },
  {
    "id": 226,
    "address": "1528 N Harmon St",
    "latitude": 47.264646,
    "longitude": -122.5362222,
    "city": "Tacoma",
    "state": "WA",
    "zipCode": "98406",
    "fullAddress": "1528 N Harmon St, Tacoma, WA 98406",
    "geocoded": true
  },
  {
    "id": 227,
    "address": "1335 N Jackson Ave",
    "latitude": 47.2630714,
    "longitude": -122.5367112,
    "city": "Tacoma",
    "state": "WA",
    "zipCode": "98406",
    "fullAddress": "1335 N Jackson Ave, Tacoma, WA 98406",
    "geocoded": true
  },
  {
    "id": 228,
    "address": "1442 N Winnifred St",
    "latitude": 47.2643297,
    "longitude": -122.5123101,
    "city": "Tacoma",
    "state": "WA",
    "zipCode": "98406",
    "fullAddress": "1442 N Winnifred St, Tacoma, WA 98406",
    "geocoded": true
  },
  {
    "id": 229,
    "address": "2132 N Orchard St",
    "latitude": 47.2685101,
    "longitude": -122.5055752,
    "city": "Tacoma",
    "state": "WA",
    "zipCode": "98406",
    "fullAddress": "2132 N Orchard St, Tacoma, WA 98406",
    "geocoded": true
  },
  {
    "id": 230,
    "address": "1452 N Highland St",
    "latitude": 47.2646058,
    "longitude": -122.5135842,
    "city": "Tacoma",
    "state": "WA",
    "zipCode": "98406",
    "fullAddress": "1452 N Highland St, Tacoma, WA 98406",
    "geocoded": true
  },
  {
    "id": 231,
    "address": "1424 N Winnifred St",
    "latitude": 47.2636922,
    "longitude": -122.5122432,
    "city": "Tacoma",
    "state": "WA",
    "zipCode": "98406",
    "fullAddress": "1424 N Winnifred St, Tacoma, WA 98406",
    "geocoded": true
  },
  {
    "id": 232,
    "address": "1356 Heatherwood Cir",
    "latitude": 47.2645079,
    "longitude": -122.5334209,
    "city": "Tacoma",
    "state": "WA",
    "zipCode": "98406",
    "fullAddress": "1356 Heatherwood Cir, Tacoma, WA 98406",
    "geocoded": true
  },
  {
    "id": 233,
    "address": "2107 N Mildred St",
    "latitude": 47.2681202,
    "longitude": -122.5261941,
    "city": "Tacoma",
    "state": "WA",
    "zipCode": "98406",
    "fullAddress": "2107 N Mildred St, Tacoma, WA 98406",
    "geocoded": true
  },
  {
    "id": 234,
    "address": "1818 N Hawthorne Dr",
    "latitude": 47.2668879,
    "longitude": -122.5282378,
    "city": "Tacoma",
    "state": "WA",
    "zipCode": "98406",
    "fullAddress": "1818 N Hawthorne Dr, Tacoma, WA 98406",
    "geocoded": true
  },
  {
    "id": 235,
    "address": "1419 N Winnifred St",
    "latitude": 47.2635438,
    "longitude": -122.5116343,
    "city": "Tacoma",
    "state": "WA",
    "zipCode": "98406",
    "fullAddress": "1419 N Winnifred St, Tacoma, WA 98406",
    "geocoded": true
  },
  {
    "id": 236,
    "address": "1315 N Skyline Dr",
    "latitude": 47.2628631,
    "longitude": -122.5298312,
    "city": "Tacoma",
    "state": "WA",
    "zipCode": "98406",
    "fullAddress": "1315 N Skyline Dr, Tacoma, WA 98406",
    "geocoded": true
  },
  {
    "id": 237,
    "address": "1311 N Jackson Ave",
    "latitude": 47.2622554,
    "longitude": -122.536725,
    "city": "Tacoma",
    "state": "WA",
    "zipCode": "98406",
    "fullAddress": "1311 N Jackson Ave, Tacoma, WA 98406",
    "geocoded": true
  },
  {
    "id": 238,
    "address": "176 N James St",
    "latitude": 47.2626437,
    "longitude": -122.5345329,
    "city": "Tacoma",
    "state": "WA",
    "zipCode": "98406",
    "fullAddress": "176 N James St, Tacoma, WA 98406",
    "geocoded": true
  },
  {
    "id": 239,
    "address": "1447 N Highland St",
    "latitude": 47.2645147,
    "longitude": -122.5129492,
    "city": "Tacoma",
    "state": "WA",
    "zipCode": "98406",
    "fullAddress": "1447 N Highland St, Tacoma, WA 98406",
    "geocoded": true
  },
  {
    "id": 240,
    "address": "187 N Skyline Dr",
    "latitude": 47.2593083,
    "longitude": -122.5313181,
    "city": "Tacoma",
    "state": "WA",
    "zipCode": "98406",
    "fullAddress": "187 N Skyline Dr, Tacoma, WA 98406",
    "geocoded": true
  },
  {
    "id": 241,
    "address": "7613 N 10th St",
    "latitude": 47.2608883,
    "longitude": -122.5388326,
    "city": "Tacoma",
    "state": "WA",
    "zipCode": "98406",
    "fullAddress": "7613 N 10th St, Tacoma, WA 98406",
    "geocoded": true
  },
  {
    "id": 242,
    "address": "2627 N Highland St",
    "latitude": 47.2722267,
    "longitude": -122.5127693,
    "city": "Tacoma",
    "state": "WA",
    "zipCode": "98407",
    "fullAddress": "2627 N Highland St, Tacoma, WA 98407",
    "geocoded": true
  },
  {
    "id": 243,
    "address": "3113 N Whitman St",
    "latitude": 47.2757062,
    "longitude": -122.5214331,
    "city": "Tacoma",
    "state": "WA",
    "zipCode": "98407",
    "fullAddress": "3113 N Whitman St, Tacoma, WA 98407",
    "geocoded": true
  },
  {
    "id": 244,
    "address": "3701 N Defiance St",
    "latitude": 47.2819753,
    "longitude": -122.5173478,
    "city": "Tacoma",
    "state": "WA",
    "zipCode": "98407",
    "fullAddress": "3701 N Defiance St, Tacoma, WA 98407",
    "geocoded": true
  },
  {
    "id": 245,
    "address": "2801 N Vassault St",
    "latitude": 47.2738925,
    "longitude": -122.5203503,
    "city": "Tacoma",
    "state": "WA",
    "zipCode": "98407",
    "fullAddress": "2801 N Vassault St, Tacoma, WA 98407",
    "geocoded": true
  },
  {
    "id": 246,
    "address": "4636 N Defiance St",
    "latitude": 47.292156,
    "longitude": -122.5186554,
    "city": "Tacoma",
    "state": "WA",
    "zipCode": "98407",
    "fullAddress": "4636 N Defiance St, Tacoma, WA 98407",
    "geocoded": true
  },
  {
    "id": 247,
    "address": "3826 N Bristol St",
    "latitude": 47.2839338,
    "longitude": -122.5192459,
    "city": "Tacoma",
    "state": "WA",
    "zipCode": "98407",
    "fullAddress": "3826 N Bristol St, Tacoma, WA 98407",
    "geocoded": true
  },
  {
    "id": 248,
    "address": "4213 N Highland Ave",
    "latitude": 47.280151532923895,
    "longitude": -122.47997004212297,
    "city": "Tacoma",
    "state": "WA",
    "zipCode": "98407",
    "fullAddress": "4213 N Highland Ave, Tacoma, WA 98407",
    "geocoded": false
  },
  {
    "id": 249,
    "address": "3728 Commencement Bay Dr",
    "latitude": 47.2822382,
    "longitude": -122.5181389,
    "city": "Tacoma",
    "state": "WA",
    "zipCode": "98407",
    "fullAddress": "3728 Commencement Bay Dr, Tacoma, WA 98407",
    "geocoded": true
  },
  {
    "id": 250,
    "address": "6115 N 37th St",
    "latitude": 47.2819861,
    "longitude": -122.5184801,
    "city": "Tacoma",
    "state": "WA",
    "zipCode": "98407",
    "fullAddress": "6115 N 37th St, Tacoma, WA 98407",
    "geocoded": true
  },
  {
    "id": 251,
    "address": "4805 Five Views Rd",
    "latitude": 47.2935423,
    "longitude": -122.5228273,
    "city": "Tacoma",
    "state": "WA",
    "zipCode": "98407",
    "fullAddress": "4805 Five Views Rd, Tacoma, WA 98407",
    "geocoded": true
  },
  {
    "id": 252,
    "address": "3308 N Whitman St",
    "latitude": 47.277636,
    "longitude": -122.5220488,
    "city": "Tacoma",
    "state": "WA",
    "zipCode": "98407",
    "fullAddress": "3308 N Whitman St, Tacoma, WA 98407",
    "geocoded": true
  },
  {
    "id": 253,
    "address": "1431 N Woodlawn St",
    "latitude": 47.263972,
    "longitude": -122.5143016,
    "city": "Tacoma",
    "state": "WA",
    "zipCode": "98406",
    "fullAddress": "1431 N Woodlawn St, Tacoma, WA 98406",
    "geocoded": true
  },
  {
    "id": 254,
    "address": "1425 S Washington St",
    "latitude": 47.2473179,
    "longitude": -122.4846046,
    "city": "Tacoma",
    "state": "WA",
    "zipCode": "98405",
    "fullAddress": "1425 S Washington St, Tacoma, WA 98405",
    "geocoded": true
  },
  {
    "id": 255,
    "address": "1509 S Washington St",
    "latitude": 47.2466753,
    "longitude": -122.4845743,
    "city": "Tacoma",
    "state": "WA",
    "zipCode": "98405",
    "fullAddress": "1509 S Washington St, Tacoma, WA 98405",
    "geocoded": true
  },
  {
    "id": 256,
    "address": "5117 S 11th St",
    "latitude": 47.2516035,
    "longitude": -122.5061442,
    "city": "Tacoma",
    "state": "WA",
    "zipCode": "98465",
    "fullAddress": "5117 S 11th St, Tacoma, WA 98465",
    "geocoded": true
  },
  {
    "id": 257,
    "address": "4533 S 7th St",
    "latitude": 47.25465,
    "longitude": -122.4997247,
    "city": "Tacoma",
    "state": "WA",
    "zipCode": "98405",
    "fullAddress": "4533 S 7th St, Tacoma, WA 98405",
    "geocoded": true
  },
  {
    "id": 258,
    "address": "1605 S Proctor St",
    "latitude": 47.2457571,
    "longitude": -122.4886661,
    "city": "Tacoma",
    "state": "WA",
    "zipCode": "98405",
    "fullAddress": "1605 S Proctor St, Tacoma, WA 98405",
    "geocoded": true
  },
  {
    "id": 259,
    "address": "1617 S Winnifred St",
    "latitude": 47.245332,
    "longitude": -122.5113495,
    "city": "Tacoma",
    "state": "WA",
    "zipCode": "98465",
    "fullAddress": "1617 S Winnifred St, Tacoma, WA 98465",
    "geocoded": true
  },
  {
    "id": 260,
    "address": "3008 S 10th St",
    "latitude": 47.2515506,
    "longitude": -122.4752945,
    "city": "Tacoma",
    "state": "WA",
    "zipCode": "98405",
    "fullAddress": "3008 S 10th St, Tacoma, WA 98405",
    "geocoded": true
  },
  {
    "id": 261,
    "address": "1221 Huson Dr",
    "latitude": 47.2492012,
    "longitude": -122.503851,
    "city": "Tacoma",
    "state": "WA",
    "zipCode": "98405",
    "fullAddress": "1221 Huson Dr, Tacoma, WA 98405",
    "geocoded": true
  },
  {
    "id": 262,
    "address": "1653 Firlands Dr",
    "latitude": 47.2446312,
    "longitude": -122.501855,
    "city": "Tacoma",
    "state": "WA",
    "zipCode": "98405",
    "fullAddress": "1653 Firlands Dr, Tacoma, WA 98405",
    "geocoded": true
  },
  {
    "id": 263,
    "address": "301 S 15th St",
    "latitude": 47.249171,
    "longitude": -122.43936,
    "city": "Tacoma",
    "state": "WA",
    "zipCode": "98405",
    "fullAddress": "301 S 15th St, Tacoma, WA 98405",
    "geocoded": true
  },
  {
    "id": 264,
    "address": "1723 S Washington St",
    "latitude": 47.2441492,
    "longitude": -122.4846541,
    "city": "Tacoma",
    "state": "WA",
    "zipCode": "98405",
    "fullAddress": "1723 S Washington St, Tacoma, WA 98405",
    "geocoded": true
  },
  {
    "id": 265,
    "address": "302 S 14th St",
    "latitude": 47.2482914,
    "longitude": -122.4737441,
    "city": "Tacoma",
    "state": "WA",
    "zipCode": "98405",
    "fullAddress": "302 S 14th St, Tacoma, WA 98405",
    "geocoded": true
  },
  {
    "id": 266,
    "address": "1305 S Durango St",
    "latitude": 47.2485125,
    "longitude": -122.4872611,
    "city": "Tacoma",
    "state": "WA",
    "zipCode": "98405",
    "fullAddress": "1305 S Durango St, Tacoma, WA 98405",
    "geocoded": true
  },
  {
    "id": 267,
    "address": "3812 S 8th St",
    "latitude": 47.2534491,
    "longitude": -122.487014,
    "city": "Tacoma",
    "state": "WA",
    "zipCode": "98405",
    "fullAddress": "3812 S 8th St, Tacoma, WA 98405",
    "geocoded": true
  },
  {
    "id": 268,
    "address": "3833 S 10th St",
    "latitude": 47.2519418,
    "longitude": -122.4883499,
    "city": "Tacoma",
    "state": "WA",
    "zipCode": "98405",
    "fullAddress": "3833 S 10th St, Tacoma, WA 98405",
    "geocoded": true
  },
  {
    "id": 269,
    "address": "455 S 7th St",
    "latitude": 47.2573551,
    "longitude": -122.4434658,
    "city": "Tacoma",
    "state": "WA",
    "zipCode": "98405",
    "fullAddress": "455 S 7th St, Tacoma, WA 98405",
    "geocoded": true
  },
  {
    "id": 270,
    "address": "1305 S Durango St",
    "latitude": 47.2485125,
    "longitude": -122.4872611,
    "city": "Tacoma",
    "state": "WA",
    "zipCode": "98405",
    "fullAddress": "1305 S Durango St, Tacoma, WA 98405",
    "geocoded": true
  },
  {
    "id": 271,
    "address": "1017 S Trafton St",
    "latitude": 47.251172,
    "longitude": -122.4666238,
    "city": "Tacoma",
    "state": "WA",
    "zipCode": "98405",
    "fullAddress": "1017 S Trafton St, Tacoma, WA 98405",
    "geocoded": true
  },
  {
    "id": 272,
    "address": "3521 S 9th St",
    "latitude": 47.2528272,
    "longitude": -122.4833633,
    "city": "Tacoma",
    "state": "WA",
    "zipCode": "98405",
    "fullAddress": "3521 S 9th St, Tacoma, WA 98405",
    "geocoded": true
  },
  {
    "id": 273,
    "address": "111 S Anderson St",
    "latitude": 47.2527243,
    "longitude": -122.4724936,
    "city": "Tacoma",
    "state": "WA",
    "zipCode": "98405",
    "fullAddress": "111 S Anderson St, Tacoma, WA 98405",
    "geocoded": true
  },
  {
    "id": 274,
    "address": "808 S Junett St",
    "latitude": 47.2531418,
    "longitude": -122.475087,
    "city": "Tacoma",
    "state": "WA",
    "zipCode": "98405",
    "fullAddress": "808 S Junett St, Tacoma, WA 98405",
    "geocoded": true
  },
  {
    "id": 275,
    "address": "831 S Pine St",
    "latitude": 47.2525141,
    "longitude": -122.4733342,
    "city": "Tacoma",
    "state": "WA",
    "zipCode": "98405",
    "fullAddress": "831 S Pine St, Tacoma, WA 98405",
    "geocoded": true
  },
  {
    "id": 276,
    "address": "915 S Ridgewood Ave",
    "latitude": 47.2524345,
    "longitude": -122.461767,
    "city": "Tacoma",
    "state": "WA",
    "zipCode": "98405",
    "fullAddress": "915 S Ridgewood Ave, Tacoma, WA 98405",
    "geocoded": true
  },
  {
    "id": 277,
    "address": "3005 S 14th St",
    "latitude": 47.2486536,
    "longitude": -122.4752499,
    "city": "Tacoma",
    "state": "WA",
    "zipCode": "98405",
    "fullAddress": "3005 S 14th St, Tacoma, WA 98405",
    "geocoded": true
  },
  {
    "id": 278,
    "address": "1469 S Prospect St",
    "latitude": 47.246682,
    "longitude": -122.468614,
    "city": "Tacoma",
    "state": "WA",
    "zipCode": "98405",
    "fullAddress": "1469 S Prospect St, Tacoma, WA 98405",
    "geocoded": true
  },
  {
    "id": 279,
    "address": "84 S Prospect St",
    "latitude": 47.2464095,
    "longitude": -122.4689088,
    "city": "Tacoma",
    "state": "WA",
    "zipCode": "98405",
    "fullAddress": "84 S Prospect St, Tacoma, WA 98405",
    "geocoded": true
  },
  {
    "id": 280,
    "address": "816 S Junett St",
    "latitude": 47.2528894,
    "longitude": -122.4750757,
    "city": "Tacoma",
    "state": "WA",
    "zipCode": "98405",
    "fullAddress": "816 S Junett St, Tacoma, WA 98405",
    "geocoded": true
  },
  {
    "id": 281,
    "address": "811 S Junett St",
    "latitude": 47.2530158,
    "longitude": -122.4745395,
    "city": "Tacoma",
    "state": "WA",
    "zipCode": "98405",
    "fullAddress": "811 S Junett St, Tacoma, WA 98405",
    "geocoded": true
  },
  {
    "id": 282,
    "address": "1002 S Ferry St",
    "latitude": 47.2517474,
    "longitude": -122.4645647,
    "city": "Tacoma",
    "state": "WA",
    "zipCode": "98405",
    "fullAddress": "1002 S Ferry St, Tacoma, WA 98405",
    "geocoded": true
  },
  {
    "id": 283,
    "address": "3122 S 9th St",
    "latitude": 47.252457,
    "longitude": -122.477465,
    "city": "Tacoma",
    "state": "WA",
    "zipCode": "98405",
    "fullAddress": "3122 S 9th St, Tacoma, WA 98405",
    "geocoded": true
  },
  {
    "id": 284,
    "address": "3015 S Melrose St",
    "latitude": 47.2475956,
    "longitude": -122.4755828,
    "city": "Tacoma",
    "state": "WA",
    "zipCode": "98405",
    "fullAddress": "3015 S Melrose St, Tacoma, WA 98405",
    "geocoded": true
  },
  {
    "id": 285,
    "address": "915 S Ridgewood Ave",
    "latitude": 47.2524345,
    "longitude": -122.461767,
    "city": "Tacoma",
    "state": "WA",
    "zipCode": "98405",
    "fullAddress": "915 S Ridgewood Ave, Tacoma, WA 98405",
    "geocoded": true
  },
  {
    "id": 286,
    "address": "1008 S Trafton St",
    "latitude": 47.2515169,
    "longitude": -122.4672557,
    "city": "Tacoma",
    "state": "WA",
    "zipCode": "98405",
    "fullAddress": "1008 S Trafton St, Tacoma, WA 98405",
    "geocoded": true
  },
  {
    "id": 287,
    "address": "2118 S Ainsworth Ave",
    "latitude": 47.2406483,
    "longitude": -122.4565866,
    "city": "Tacoma",
    "state": "WA",
    "zipCode": "98405",
    "fullAddress": "2118 S Ainsworth Ave, Tacoma, WA 98405",
    "geocoded": true
  },
  {
    "id": 288,
    "address": "715 S J St",
    "latitude": 47.256048,
    "longitude": -122.4510496,
    "city": "Tacoma",
    "state": "WA",
    "zipCode": "98405",
    "fullAddress": "715 S J St, Tacoma, WA 98405",
    "geocoded": true
  },
  {
    "id": 289,
    "address": "1947 S Ash St",
    "latitude": 47.2421171,
    "longitude": -122.4601844,
    "city": "Tacoma",
    "state": "WA",
    "zipCode": "98405",
    "fullAddress": "1947 S Ash St, Tacoma, WA 98405",
    "geocoded": true
  },
  {
    "id": 290,
    "address": "1217 S 19th St",
    "latitude": 47.2436596,
    "longitude": -122.4516485,
    "city": "Tacoma",
    "state": "WA",
    "zipCode": "98405",
    "fullAddress": "1217 S 19th St, Tacoma, WA 98405",
    "geocoded": true
  },
  {
    "id": 291,
    "address": "1244 S Grant Ave",
    "latitude": 47.2495214,
    "longitude": -122.4600738,
    "city": "Tacoma",
    "state": "WA",
    "zipCode": "98405",
    "fullAddress": "1244 S Grant Ave, Tacoma, WA 98405",
    "geocoded": true
  },
  {
    "id": 292,
    "address": "701 S J St",
    "latitude": 47.25616,
    "longitude": -122.451075,
    "city": "Tacoma",
    "state": "WA",
    "zipCode": "98405",
    "fullAddress": "701 S J St, Tacoma, WA 98405",
    "geocoded": true
  },
  {
    "id": 293,
    "address": "3902 S 16th St",
    "latitude": 47.2458841,
    "longitude": -122.4893924,
    "city": "Tacoma",
    "state": "WA",
    "zipCode": "98405",
    "fullAddress": "3902 S 16th St, Tacoma, WA 98405",
    "geocoded": true
  },
  {
    "id": 294,
    "address": "112 Cliff Ave #207",
    "latitude": 47.2534425,
    "longitude": -122.4364567,
    "city": "Tacoma",
    "state": "WA",
    "zipCode": "98402",
    "fullAddress": "112 Cliff Ave #207, Tacoma, WA 98402",
    "geocoded": true
  },
  {
    "id": 295,
    "address": "2527 S Cushman Ave",
    "latitude": 47.2367544,
    "longitude": -122.4539858,
    "city": "Tacoma",
    "state": "WA",
    "zipCode": "98405",
    "fullAddress": "2527 S Cushman Ave, Tacoma, WA 98405",
    "geocoded": true
  },
  {
    "id": 296,
    "address": "2535 S Cushman Ave",
    "latitude": 47.2367186,
    "longitude": -122.4539777,
    "city": "Tacoma",
    "state": "WA",
    "zipCode": "98405",
    "fullAddress": "2535 S Cushman Ave, Tacoma, WA 98405",
    "geocoded": true
  },
  {
    "id": 297,
    "address": "2536 S Sheridan Ave",
    "latitude": 47.2367455,
    "longitude": -122.4527551,
    "city": "Tacoma",
    "state": "WA",
    "zipCode": "98405",
    "fullAddress": "2536 S Sheridan Ave, Tacoma, WA 98405",
    "geocoded": true
  },
  {
    "id": 298,
    "address": "2356 S Ainsworth Ave",
    "latitude": 47.2382431,
    "longitude": -122.4560409,
    "city": "Tacoma",
    "state": "WA",
    "zipCode": "98405",
    "fullAddress": "2356 S Ainsworth Ave, Tacoma, WA 98405",
    "geocoded": true
  },
  {
    "id": 299,
    "address": "2337 S J St",
    "latitude": 47.2393592,
    "longitude": -122.4472483,
    "city": "Tacoma",
    "state": "WA",
    "zipCode": "98405",
    "fullAddress": "2337 S J St, Tacoma, WA 98405",
    "geocoded": true
  },
  {
    "id": 300,
    "address": "1911 Sunset Dr W",
    "latitude": 47.242249,
    "longitude": -122.5445776,
    "city": "University Place",
    "state": "WA",
    "zipCode": "98466",
    "fullAddress": "1911 Sunset Dr W, University Place, WA 98466",
    "geocoded": true
  },
  {
    "id": 301,
    "address": "7322 N Skyview Place #E201",
    "latitude": 47.264799294925375,
    "longitude": -122.47339389619518,
    "city": "Tacoma",
    "state": "WA",
    "zipCode": "98406",
    "fullAddress": "7322 N Skyview Place #E201, Tacoma, WA 98406",
    "geocoded": false
  },
  {
    "id": 302,
    "address": "836 S Geiger St",
    "latitude": 47.2531895,
    "longitude": -122.535264,
    "city": "Tacoma",
    "state": "WA",
    "zipCode": "98465",
    "fullAddress": "836 S Geiger St, Tacoma, WA 98465",
    "geocoded": true
  },
  {
    "id": 303,
    "address": "7237 S 15th St",
    "latitude": 47.246957,
    "longitude": -122.5327081,
    "city": "Tacoma",
    "state": "WA",
    "zipCode": "98465",
    "fullAddress": "7237 S 15th St, Tacoma, WA 98465",
    "geocoded": true
  },
  {
    "id": 304,
    "address": "7902 N 7th St",
    "latitude": 47.2528003,
    "longitude": -122.543271,
    "city": "Tacoma",
    "state": "WA",
    "zipCode": "98406",
    "fullAddress": "7902 N 7th St, Tacoma, WA 98406",
    "geocoded": true
  },
  {
    "id": 305,
    "address": "1702 S Brookside Terr",
    "latitude": 47.2442444,
    "longitude": -122.5463602,
    "city": "Tacoma",
    "state": "WA",
    "zipCode": "98465",
    "fullAddress": "1702 S Brookside Terr, Tacoma, WA 98465",
    "geocoded": true
  },
  {
    "id": 306,
    "address": "929 N Mountain View Ave",
    "latitude": 47.2569159,
    "longitude": -122.5415007,
    "city": "Tacoma",
    "state": "WA",
    "zipCode": "98406",
    "fullAddress": "929 N Mountain View Ave, Tacoma, WA 98406",
    "geocoded": true
  },
  {
    "id": 307,
    "address": "7914 N 9th St",
    "latitude": 47.2552628,
    "longitude": -122.5436881,
    "city": "Tacoma",
    "state": "WA",
    "zipCode": "98406",
    "fullAddress": "7914 N 9th St, Tacoma, WA 98406",
    "geocoded": true
  },
  {
    "id": 308,
    "address": "1563 S Seashore Dr",
    "latitude": 47.2445144,
    "longitude": -122.5542646,
    "city": "Tacoma",
    "state": "WA",
    "zipCode": "98465",
    "fullAddress": "1563 S Seashore Dr, Tacoma, WA 98465",
    "geocoded": true
  },
  {
    "id": 309,
    "address": "1216 S Brookside Terr",
    "latitude": 47.2488531,
    "longitude": -122.5474395,
    "city": "Tacoma",
    "state": "WA",
    "zipCode": "98465",
    "fullAddress": "1216 S Brookside Terr, Tacoma, WA 98465",
    "geocoded": true
  },
  {
    "id": 310,
    "address": "7216 Rosemount Cir",
    "latitude": 47.2437274,
    "longitude": -122.5334162,
    "city": "Tacoma",
    "state": "WA",
    "zipCode": "98465",
    "fullAddress": "7216 Rosemount Cir, Tacoma, WA 98465",
    "geocoded": true
  },
  {
    "id": 311,
    "address": "172 S Meyers St",
    "latitude": 47.2517584,
    "longitude": -122.534077,
    "city": "Tacoma",
    "state": "WA",
    "zipCode": "98465",
    "fullAddress": "172 S Meyers St, Tacoma, WA 98465",
    "geocoded": true
  },
  {
    "id": 312,
    "address": "1322 S Sunset Dr",
    "latitude": 47.2480035,
    "longitude": -122.5452766,
    "city": "Tacoma",
    "state": "WA",
    "zipCode": "98465",
    "fullAddress": "1322 S Sunset Dr, Tacoma, WA 98465",
    "geocoded": true
  },
  {
    "id": 313,
    "address": "1742 S Fairview Dr",
    "latitude": 47.243525,
    "longitude": -122.538488,
    "city": "Tacoma",
    "state": "WA",
    "zipCode": "98465",
    "fullAddress": "1742 S Fairview Dr, Tacoma, WA 98465",
    "geocoded": true
  },
  {
    "id": 314,
    "address": "1308 S Sunset Dr",
    "latitude": 47.2485312,
    "longitude": -122.5466462,
    "city": "Tacoma",
    "state": "WA",
    "zipCode": "98465",
    "fullAddress": "1308 S Sunset Dr, Tacoma, WA 98465",
    "geocoded": true
  },
  {
    "id": 315,
    "address": "736 N Karl Johan Ave",
    "latitude": 47.2560692,
    "longitude": -122.5405797,
    "city": "Tacoma",
    "state": "WA",
    "zipCode": "98406",
    "fullAddress": "736 N Karl Johan Ave, Tacoma, WA 98406",
    "geocoded": true
  },
  {
    "id": 316,
    "address": "7616 37th St W #4J",
    "latitude": 47.21413488623735,
    "longitude": -122.55324352039301,
    "city": "University Place",
    "state": "WA",
    "zipCode": "98466",
    "fullAddress": "7616 37th St W #4J, University Place, WA 98466",
    "geocoded": false
  },
  {
    "id": 317,
    "address": "2735 Vista Place W",
    "latitude": 47.2342675,
    "longitude": -122.5564781,
    "city": "University Place",
    "state": "WA",
    "zipCode": "98466",
    "fullAddress": "2735 Vista Place W, University Place, WA 98466",
    "geocoded": true
  },
  {
    "id": 318,
    "address": "5401 76th Av Ct W",
    "latitude": 47.2078468,
    "longitude": -122.5388932,
    "city": "University Place",
    "state": "WA",
    "zipCode": "98467",
    "fullAddress": "5401 76th Av Ct W, University Place, WA 98467",
    "geocoded": true
  },
  {
    "id": 319,
    "address": "2909 Sunset Dr W",
    "latitude": 47.2329244,
    "longitude": -122.5448945,
    "city": "University Place",
    "state": "WA",
    "zipCode": "98466",
    "fullAddress": "2909 Sunset Dr W, University Place, WA 98466",
    "geocoded": true
  },
  {
    "id": 320,
    "address": "1901 Crystal Springs Rd W",
    "latitude": 47.2424654,
    "longitude": -122.5474612,
    "city": "Tacoma",
    "state": "WA",
    "zipCode": "98466",
    "fullAddress": "1901 Crystal Springs Rd W, Tacoma, WA 98466",
    "geocoded": true
  },
  {
    "id": 321,
    "address": "7608 19th St W",
    "latitude": 47.2427196,
    "longitude": -122.5249013,
    "city": "Tacoma",
    "state": "WA",
    "zipCode": "98466",
    "fullAddress": "7608 19th St W, Tacoma, WA 98466",
    "geocoded": true
  },
  {
    "id": 322,
    "address": "7608 19th St W",
    "latitude": 47.2427196,
    "longitude": -122.5249013,
    "city": "Tacoma",
    "state": "WA",
    "zipCode": "98466",
    "fullAddress": "7608 19th St W, Tacoma, WA 98466",
    "geocoded": true
  },
  {
    "id": 323,
    "address": "3223 Soundview Dr W",
    "latitude": 47.2301207,
    "longitude": -122.5616281,
    "city": "University Place",
    "state": "WA",
    "zipCode": "98466",
    "fullAddress": "3223 Soundview Dr W, University Place, WA 98466",
    "geocoded": true
  },
  {
    "id": 324,
    "address": "4501 Grandview Dr W #T221",
    "latitude": 47.23156817521863,
    "longitude": -122.54129155632047,
    "city": "University Place",
    "state": "WA",
    "zipCode": "98466",
    "fullAddress": "4501 Grandview Dr W #T221, University Place, WA 98466",
    "geocoded": false
  },
  {
    "id": 325,
    "address": "4615 Grandview Dr W #A",
    "latitude": 47.22732949325864,
    "longitude": -122.53766505089092,
    "city": "University Place",
    "state": "WA",
    "zipCode": "98466",
    "fullAddress": "4615 Grandview Dr W #A, University Place, WA 98466",
    "geocoded": false
  },
  {
    "id": 326,
    "address": "5708 95th Av Ct W",
    "latitude": 47.2046242,
    "longitude": -122.5645515,
    "city": "University Place",
    "state": "WA",
    "zipCode": "98467",
    "fullAddress": "5708 95th Av Ct W, University Place, WA 98467",
    "geocoded": true
  },
  {
    "id": 327,
    "address": "9621 56th St W",
    "latitude": 47.2060891,
    "longitude": -122.5652843,
    "city": "University Place",
    "state": "WA",
    "zipCode": "98466",
    "fullAddress": "9621 56th St W, University Place, WA 98466",
    "geocoded": true
  },
  {
    "id": 328,
    "address": "7903 53rd St W",
    "latitude": 47.2091921,
    "longitude": -122.5430703,
    "city": "University Place",
    "state": "WA",
    "zipCode": "98467",
    "fullAddress": "7903 53rd St W, University Place, WA 98467",
    "geocoded": true
  },
  {
    "id": 329,
    "address": "8811 51st St W",
    "latitude": 47.210661,
    "longitude": -122.556266,
    "city": "University Place",
    "state": "WA",
    "zipCode": "98467",
    "fullAddress": "8811 51st St W, University Place, WA 98467",
    "geocoded": true
  },
  {
    "id": 330,
    "address": "4906 88th Ave W",
    "latitude": 47.2122138,
    "longitude": -122.5545213,
    "city": "University Place",
    "state": "WA",
    "zipCode": "98467",
    "fullAddress": "4906 88th Ave W, University Place, WA 98467",
    "geocoded": true
  },
  {
    "id": 331,
    "address": "873 51st St W",
    "latitude": 47.2104723,
    "longitude": -122.5581443,
    "city": "University Place",
    "state": "WA",
    "zipCode": "98467",
    "fullAddress": "873 51st St W, University Place, WA 98467",
    "geocoded": true
  },
  {
    "id": 332,
    "address": "911 65th St Ct W",
    "latitude": 47.1978284,
    "longitude": -122.5595534,
    "city": "University Place",
    "state": "WA",
    "zipCode": "98467",
    "fullAddress": "911 65th St Ct W, University Place, WA 98467",
    "geocoded": true
  },
  {
    "id": 333,
    "address": "6714 Twin Hills Dr W",
    "latitude": 47.2047838,
    "longitude": -122.5277768,
    "city": "University Place",
    "state": "WA",
    "zipCode": "98467",
    "fullAddress": "6714 Twin Hills Dr W, University Place, WA 98467",
    "geocoded": true
  },
  {
    "id": 334,
    "address": "6601 37th St W",
    "latitude": 47.224809,
    "longitude": -122.5253909,
    "city": "University Place",
    "state": "WA",
    "zipCode": "98466",
    "fullAddress": "6601 37th St W, University Place, WA 98466",
    "geocoded": true
  },
  {
    "id": 335,
    "address": "4517 66th St Ct W",
    "latitude": 47.22297351965217,
    "longitude": -122.54644804316753,
    "city": "University Place",
    "state": "WA",
    "zipCode": "98466",
    "fullAddress": "4517 66th St Ct W, University Place, WA 98466",
    "geocoded": false
  },
  {
    "id": 336,
    "address": "6104 51st St Ct W",
    "latitude": 47.22562175259025,
    "longitude": -122.54383960185177,
    "city": "Tacoma",
    "state": "WA",
    "zipCode": "98467",
    "fullAddress": "6104 51st St Ct W, Tacoma, WA 98467",
    "geocoded": false
  },
  {
    "id": 337,
    "address": "7111 64th St Ct W",
    "latitude": 47.1989219,
    "longitude": -122.5331038,
    "city": "University Place",
    "state": "WA",
    "zipCode": "98467",
    "fullAddress": "7111 64th St Ct W, University Place, WA 98467",
    "geocoded": true
  },
  {
    "id": 338,
    "address": "4523 62nd Ave W",
    "latitude": 47.2158473,
    "longitude": -122.5204358,
    "city": "University Place",
    "state": "WA",
    "zipCode": "98466",
    "fullAddress": "4523 62nd Ave W, University Place, WA 98466",
    "geocoded": true
  },
  {
    "id": 339,
    "address": "5017 58th Av Ct W",
    "latitude": 47.211443,
    "longitude": -122.5146482,
    "city": "University Place",
    "state": "WA",
    "zipCode": "98467",
    "fullAddress": "5017 58th Av Ct W, University Place, WA 98467",
    "geocoded": true
  },
  {
    "id": 340,
    "address": "4517 65th Ave W",
    "latitude": 47.2420167,
    "longitude": -122.5237982,
    "city": "Tacoma",
    "state": "WA",
    "zipCode": "98466",
    "fullAddress": "4517 65th Ave W, Tacoma, WA 98466",
    "geocoded": true
  },
  {
    "id": 341,
    "address": "1319 Berkeley Ave",
    "latitude": 47.2227005,
    "longitude": -122.5136668,
    "city": "Fircrest",
    "state": "WA",
    "zipCode": "98466",
    "fullAddress": "1319 Berkeley Ave, Fircrest, WA 98466",
    "geocoded": true
  },
  {
    "id": 342,
    "address": "5123 57th Av Ct W",
    "latitude": 47.2108022,
    "longitude": -122.5131882,
    "city": "University Place",
    "state": "WA",
    "zipCode": "98467",
    "fullAddress": "5123 57th Av Ct W, University Place, WA 98467",
    "geocoded": true
  },
  {
    "id": 343,
    "address": "5918 55th St W",
    "latitude": 47.2073319,
    "longitude": -122.5183684,
    "city": "University Place",
    "state": "WA",
    "zipCode": "98467",
    "fullAddress": "5918 55th St W, University Place, WA 98467",
    "geocoded": true
  },
  {
    "id": 344,
    "address": "6809 53rd St W",
    "latitude": 47.2097833,
    "longitude": -122.5283483,
    "city": "University Place",
    "state": "WA",
    "zipCode": "98467",
    "fullAddress": "6809 53rd St W, University Place, WA 98467",
    "geocoded": true
  },
  {
    "id": 345,
    "address": "562 54th Av Ct W",
    "latitude": 47.2061492,
    "longitude": -122.5100755,
    "city": "University Place",
    "state": "WA",
    "zipCode": "98467",
    "fullAddress": "562 54th Av Ct W, University Place, WA 98467",
    "geocoded": true
  },
  {
    "id": 346,
    "address": "6027 58th St W",
    "latitude": 47.2033358,
    "longitude": -122.5177859,
    "city": "University Place",
    "state": "WA",
    "zipCode": "98467",
    "fullAddress": "6027 58th St W, University Place, WA 98467",
    "geocoded": true
  },
  {
    "id": 347,
    "address": "6428 Chambers Creek Rd W",
    "latitude": 47.1985552,
    "longitude": -122.5257964,
    "city": "University Place",
    "state": "WA",
    "zipCode": "98467",
    "fullAddress": "6428 Chambers Creek Rd W, University Place, WA 98467",
    "geocoded": true
  },
  {
    "id": 348,
    "address": "4133 Flora Dr",
    "latitude": 47.2198965,
    "longitude": -122.5259711,
    "city": "Fircrest",
    "state": "WA",
    "zipCode": "98466",
    "fullAddress": "4133 Flora Dr, Fircrest, WA 98466",
    "geocoded": true
  },
  {
    "id": 349,
    "address": "306 Columbia Ave",
    "latitude": 47.2424018,
    "longitude": -122.5074665,
    "city": "Fircrest",
    "state": "WA",
    "zipCode": "98466",
    "fullAddress": "306 Columbia Ave, Fircrest, WA 98466",
    "geocoded": true
  },
  {
    "id": 350,
    "address": "1201 Farallone Ave",
    "latitude": 47.2237695,
    "longitude": -122.5088631,
    "city": "Fircrest",
    "state": "WA",
    "zipCode": "98466",
    "fullAddress": "1201 Farallone Ave, Fircrest, WA 98466",
    "geocoded": true
  },
  {
    "id": 351,
    "address": "1437 Evergreen Dr",
    "latitude": 47.219325,
    "longitude": -122.519806,
    "city": "Fircrest",
    "state": "WA",
    "zipCode": "98466",
    "fullAddress": "1437 Evergreen Dr, Fircrest, WA 98466",
    "geocoded": true
  },
  {
    "id": 352,
    "address": "23 Farallone Ave",
    "latitude": 47.2232102,
    "longitude": -122.5089923,
    "city": "Fircrest",
    "state": "WA",
    "zipCode": "98466",
    "fullAddress": "23 Farallone Ave, Fircrest, WA 98466",
    "geocoded": true
  },
  {
    "id": 353,
    "address": "101 Del Monte Ave",
    "latitude": 47.242562,
    "longitude": -122.5115185,
    "city": "Fircrest",
    "state": "WA",
    "zipCode": "98466",
    "fullAddress": "101 Del Monte Ave, Fircrest, WA 98466",
    "geocoded": true
  },
  {
    "id": 354,
    "address": "533 Farallone Ave",
    "latitude": 47.2355602,
    "longitude": -122.5076787,
    "city": "Fircrest",
    "state": "WA",
    "zipCode": "98466",
    "fullAddress": "533 Farallone Ave, Fircrest, WA 98466",
    "geocoded": true
  },
  {
    "id": 355,
    "address": "726 Columbia Ave",
    "latitude": 47.2425881,
    "longitude": -122.5130807,
    "city": "Fircrest",
    "state": "WA",
    "zipCode": "98466",
    "fullAddress": "726 Columbia Ave, Fircrest, WA 98466",
    "geocoded": true
  },
  {
    "id": 356,
    "address": "1105 Paradise Pkwy",
    "latitude": 47.2240635,
    "longitude": -122.5215817,
    "city": "Fircrest",
    "state": "WA",
    "zipCode": "98466",
    "fullAddress": "1105 Paradise Pkwy, Fircrest, WA 98466",
    "geocoded": true
  },
  {
    "id": 357,
    "address": "324 Harvard Ave",
    "latitude": 47.2391185,
    "longitude": -122.506275,
    "city": "Fircrest",
    "state": "WA",
    "zipCode": "98466",
    "fullAddress": "324 Harvard Ave, Fircrest, WA 98466",
    "geocoded": true
  },
  {
    "id": 358,
    "address": "105 Buena Vista Ave",
    "latitude": 47.22375,
    "longitude": -122.5150352,
    "city": "Fircrest",
    "state": "WA",
    "zipCode": "98466",
    "fullAddress": "105 Buena Vista Ave, Fircrest, WA 98466",
    "geocoded": true
  },
  {
    "id": 359,
    "address": "7706 90th Ave SW",
    "latitude": 47.1875749,
    "longitude": -122.5567421,
    "city": "Lakewood",
    "state": "WA",
    "zipCode": "98498",
    "fullAddress": "7706 90th Ave SW, Lakewood, WA 98498",
    "geocoded": true
  },
  {
    "id": 360,
    "address": "9113 Zircon Dr SW",
    "latitude": 47.1914122,
    "longitude": -122.5585748,
    "city": "Lakewood",
    "state": "WA",
    "zipCode": "98498",
    "fullAddress": "9113 Zircon Dr SW, Lakewood, WA 98498",
    "geocoded": true
  },
  {
    "id": 361,
    "address": "7323 97th Ave SW",
    "latitude": 47.1910412,
    "longitude": -122.5642567,
    "city": "Lakewood",
    "state": "WA",
    "zipCode": "98498",
    "fullAddress": "7323 97th Ave SW, Lakewood, WA 98498",
    "geocoded": true
  },
  {
    "id": 362,
    "address": "8012 Oakbrook Lane SW",
    "latitude": 47.1862337,
    "longitude": -122.5456446,
    "city": "Lakewood",
    "state": "WA",
    "zipCode": "98498",
    "fullAddress": "8012 Oakbrook Lane SW, Lakewood, WA 98498",
    "geocoded": true
  },
  {
    "id": 363,
    "address": "8826 Butte Terr SW",
    "latitude": 47.155272,
    "longitude": -122.554657,
    "city": "Lakewood",
    "state": "WA",
    "zipCode": "98498",
    "fullAddress": "8826 Butte Terr SW, Lakewood, WA 98498",
    "geocoded": true
  },
  {
    "id": 364,
    "address": "12558 Springbrook Lane SW",
    "latitude": 47.1434067,
    "longitude": -122.5096982,
    "city": "Lakewood",
    "state": "WA",
    "zipCode": "12558",
    "fullAddress": "12558 Springbrook Lane SW, Lakewood, WA 98499",
    "geocoded": true
  },
  {
    "id": 365,
    "address": "10704 Rainier Ave SW",
    "latitude": 47.1597909,
    "longitude": -122.4915333,
    "city": "Lakewood",
    "state": "WA",
    "zipCode": "10704",
    "fullAddress": "10704 Rainier Ave SW, Lakewood, WA 98499",
    "geocoded": true
  },
  {
    "id": 366,
    "address": "1051 Occident St SW",
    "latitude": 47.1614109,
    "longitude": -122.504097,
    "city": "Lakewood",
    "state": "WA",
    "zipCode": "98499",
    "fullAddress": "1051 Occident St SW, Lakewood, WA 98499",
    "geocoded": true
  },
  {
    "id": 367,
    "address": "662 Alfaretta St SW",
    "latitude": 47.1650962,
    "longitude": -122.5243464,
    "city": "Lakewood",
    "state": "WA",
    "zipCode": "98499",
    "fullAddress": "662 Alfaretta St SW, Lakewood, WA 98499",
    "geocoded": true
  },
  {
    "id": 368,
    "address": "6 W Shore Ave SW",
    "latitude": 47.1733285,
    "longitude": -122.544325,
    "city": "Lakewood",
    "state": "WA",
    "zipCode": "98498",
    "fullAddress": "6 W Shore Ave SW, Lakewood, WA 98498",
    "geocoded": true
  },
  {
    "id": 369,
    "address": "9506 Waverly Dr SW",
    "latitude": 47.1716882,
    "longitude": -122.5322577,
    "city": "Lakewood",
    "state": "WA",
    "zipCode": "98499",
    "fullAddress": "9506 Waverly Dr SW, Lakewood, WA 98499",
    "geocoded": true
  },
  {
    "id": 370,
    "address": "9629 Meadow Rd SW",
    "latitude": 47.1697102,
    "longitude": -122.5260888,
    "city": "Lakewood",
    "state": "WA",
    "zipCode": "98499",
    "fullAddress": "9629 Meadow Rd SW, Lakewood, WA 98499",
    "geocoded": true
  },
  {
    "id": 371,
    "address": "2326 Maple Lane",
    "latitude": 47.1627531,
    "longitude": -122.5898736,
    "city": "Steilacoom",
    "state": "WA",
    "zipCode": "98388",
    "fullAddress": "2326 Maple Lane, Steilacoom, WA 98388",
    "geocoded": true
  },
  {
    "id": 372,
    "address": "711 5th St",
    "latitude": 47.1658217,
    "longitude": -122.6065342,
    "city": "Steilacoom",
    "state": "WA",
    "zipCode": "98388",
    "fullAddress": "711 5th St, Steilacoom, WA 98388",
    "geocoded": true
  },
  {
    "id": 373,
    "address": "6448 S Cheyenne St",
    "latitude": 47.1987381,
    "longitude": -122.4984107,
    "city": "Tacoma",
    "state": "WA",
    "zipCode": "98409",
    "fullAddress": "6448 S Cheyenne St, Tacoma, WA 98409",
    "geocoded": true
  },
  {
    "id": 374,
    "address": "3018 S Proctor St",
    "latitude": 47.2329306,
    "longitude": -122.4886005,
    "city": "Tacoma",
    "state": "WA",
    "zipCode": "98409",
    "fullAddress": "3018 S Proctor St, Tacoma, WA 98409",
    "geocoded": true
  },
  {
    "id": 375,
    "address": "3902 S Wright Ave",
    "latitude": 47.2301421,
    "longitude": -122.488704,
    "city": "Tacoma",
    "state": "WA",
    "zipCode": "98409",
    "fullAddress": "3902 S Wright Ave, Tacoma, WA 98409",
    "geocoded": true
  },
  {
    "id": 376,
    "address": "5916 Pacific Ave",
    "latitude": 47.2030723,
    "longitude": -122.4343325,
    "city": "Tacoma",
    "state": "WA",
    "zipCode": "98408",
    "fullAddress": "5916 Pacific Ave, Tacoma, WA 98408",
    "geocoded": true
  },
  {
    "id": 377,
    "address": "3902 S Wright Ave",
    "latitude": 47.2301421,
    "longitude": -122.488704,
    "city": "Tacoma",
    "state": "WA",
    "zipCode": "98409",
    "fullAddress": "3902 S Wright Ave, Tacoma, WA 98409",
    "geocoded": true
  },
  {
    "id": 378,
    "address": "3515 S Tyler St",
    "latitude": 47.227925,
    "longitude": -122.4932214,
    "city": "Tacoma",
    "state": "WA",
    "zipCode": "98409",
    "fullAddress": "3515 S Tyler St, Tacoma, WA 98409",
    "geocoded": true
  },
  {
    "id": 379,
    "address": "3307 S Durango St",
    "latitude": 47.2300519,
    "longitude": -122.4871666,
    "city": "Tacoma",
    "state": "WA",
    "zipCode": "98409",
    "fullAddress": "3307 S Durango St, Tacoma, WA 98409",
    "geocoded": true
  },
  {
    "id": 380,
    "address": "3601 S Tyler St",
    "latitude": 47.226308,
    "longitude": -122.493214,
    "city": "Tacoma",
    "state": "WA",
    "zipCode": "98409",
    "fullAddress": "3601 S Tyler St, Tacoma, WA 98409",
    "geocoded": true
  },
  {
    "id": 381,
    "address": "4408 S 72nd St",
    "latitude": 47.1931058,
    "longitude": -122.4955579,
    "city": "Tacoma",
    "state": "WA",
    "zipCode": "98409",
    "fullAddress": "4408 S 72nd St, Tacoma, WA 98409",
    "geocoded": true
  },
  {
    "id": 382,
    "address": "6429 S Lawrence St",
    "latitude": 47.1989043,
    "longitude": -122.4796275,
    "city": "Tacoma",
    "state": "WA",
    "zipCode": "98409",
    "fullAddress": "6429 S Lawrence St, Tacoma, WA 98409",
    "geocoded": true
  },
  {
    "id": 383,
    "address": "7026 S Cedar St",
    "latitude": 47.1932659,
    "longitude": -122.4763538,
    "city": "Tacoma",
    "state": "WA",
    "zipCode": "98409",
    "fullAddress": "7026 S Cedar St, Tacoma, WA 98409",
    "geocoded": true
  },
  {
    "id": 384,
    "address": "6624 S Wapato St",
    "latitude": 47.1970936,
    "longitude": -122.4684768,
    "city": "Tacoma",
    "state": "WA",
    "zipCode": "98409",
    "fullAddress": "6624 S Wapato St, Tacoma, WA 98409",
    "geocoded": true
  },
  {
    "id": 385,
    "address": "812 S 37th St",
    "latitude": 47.2244532,
    "longitude": -122.4441192,
    "city": "Tacoma",
    "state": "WA",
    "zipCode": "98418",
    "fullAddress": "812 S 37th St, Tacoma, WA 98418",
    "geocoded": true
  },
  {
    "id": 386,
    "address": "1518 S 40th St",
    "latitude": 47.220748,
    "longitude": -122.4553408,
    "city": "Tacoma",
    "state": "WA",
    "zipCode": "98418",
    "fullAddress": "1518 S 40th St, Tacoma, WA 98418",
    "geocoded": true
  },
  {
    "id": 387,
    "address": "3702 S Thompson Ave",
    "latitude": 47.2245162,
    "longitude": -122.445131,
    "city": "Tacoma",
    "state": "WA",
    "zipCode": "98418",
    "fullAddress": "3702 S Thompson Ave, Tacoma, WA 98418",
    "geocoded": true
  },
  {
    "id": 388,
    "address": "5027 S L St",
    "latitude": 47.2114601,
    "longitude": -122.4496459,
    "city": "Tacoma",
    "state": "WA",
    "zipCode": "98408",
    "fullAddress": "5027 S L St, Tacoma, WA 98408",
    "geocoded": true
  },
  {
    "id": 389,
    "address": "765 S 41st St",
    "latitude": 47.2201371,
    "longitude": -122.4428147,
    "city": "Tacoma",
    "state": "WA",
    "zipCode": "98418",
    "fullAddress": "765 S 41st St, Tacoma, WA 98418",
    "geocoded": true
  },
  {
    "id": 390,
    "address": "6411 Tacoma Ave S",
    "latitude": 47.1986105,
    "longitude": -122.4389173,
    "city": "Tacoma",
    "state": "WA",
    "zipCode": "98408",
    "fullAddress": "6411 Tacoma Ave S, Tacoma, WA 98408",
    "geocoded": true
  },
  {
    "id": 391,
    "address": "4539 S M St",
    "latitude": 47.2154362,
    "longitude": -122.4505078,
    "city": "Tacoma",
    "state": "WA",
    "zipCode": "98418",
    "fullAddress": "4539 S M St, Tacoma, WA 98418",
    "geocoded": true
  },
  {
    "id": 392,
    "address": "4511 S J St",
    "latitude": 47.2162838,
    "longitude": -122.4460801,
    "city": "Tacoma",
    "state": "WA",
    "zipCode": "98418",
    "fullAddress": "4511 S J St, Tacoma, WA 98418",
    "geocoded": true
  },
  {
    "id": 393,
    "address": "4047 Fawcett Ave",
    "latitude": 47.2190753,
    "longitude": -122.4372295,
    "city": "Tacoma",
    "state": "WA",
    "zipCode": "98418",
    "fullAddress": "4047 Fawcett Ave, Tacoma, WA 98418",
    "geocoded": true
  },
  {
    "id": 394,
    "address": "4538 Yakima Ave",
    "latitude": 47.216128,
    "longitude": -122.4435455,
    "city": "Tacoma",
    "state": "WA",
    "zipCode": "98418",
    "fullAddress": "4538 Yakima Ave, Tacoma, WA 98418",
    "geocoded": true
  },
  {
    "id": 395,
    "address": "5924 S I St",
    "latitude": 47.202833,
    "longitude": -122.4461412,
    "city": "Tacoma",
    "state": "WA",
    "zipCode": "98408",
    "fullAddress": "5924 S I St, Tacoma, WA 98408",
    "geocoded": true
  },
  {
    "id": 396,
    "address": "1029 S 60th St",
    "latitude": 47.2029924,
    "longitude": -122.4487787,
    "city": "Tacoma",
    "state": "WA",
    "zipCode": "98408",
    "fullAddress": "1029 S 60th St, Tacoma, WA 98408",
    "geocoded": true
  },
  {
    "id": 397,
    "address": "8411 S Park Ave",
    "latitude": 47.1882488,
    "longitude": -122.4419238,
    "city": "Tacoma",
    "state": "WA",
    "zipCode": "98444",
    "fullAddress": "8411 S Park Ave, Tacoma, WA 98444",
    "geocoded": true
  },
  {
    "id": 398,
    "address": "7819 S Sheridan Ave",
    "latitude": 47.1861628,
    "longitude": -122.4524492,
    "city": "Tacoma",
    "state": "WA",
    "zipCode": "98408",
    "fullAddress": "7819 S Sheridan Ave, Tacoma, WA 98408",
    "geocoded": true
  },
  {
    "id": 399,
    "address": "1502 S 81st St",
    "latitude": 47.1836921,
    "longitude": -122.4540968,
    "city": "Tacoma",
    "state": "WA",
    "zipCode": "98408",
    "fullAddress": "1502 S 81st St, Tacoma, WA 98408",
    "geocoded": true
  },
  {
    "id": 400,
    "address": "412 S 34th St",
    "latitude": 47.2296001,
    "longitude": -122.4370777,
    "city": "Tacoma",
    "state": "WA",
    "zipCode": "98418",
    "fullAddress": "412 S 34th St, Tacoma, WA 98418",
    "geocoded": true
  },
  {
    "id": 401,
    "address": "519 S 34th St",
    "latitude": 47.2298551,
    "longitude": -122.4391303,
    "city": "Tacoma",
    "state": "WA",
    "zipCode": "98418",
    "fullAddress": "519 S 34th St, Tacoma, WA 98418",
    "geocoded": true
  },
  {
    "id": 402,
    "address": "92 E McKinley Rd",
    "latitude": 47.2332532,
    "longitude": -122.4179326,
    "city": "Tacoma",
    "state": "WA",
    "zipCode": "98404",
    "fullAddress": "92 E McKinley Rd, Tacoma, WA 98404",
    "geocoded": true
  },
  {
    "id": 403,
    "address": "5501 McKinley Ave",
    "latitude": 47.207078,
    "longitude": -122.420752,
    "city": "Tacoma",
    "state": "WA",
    "zipCode": "98404",
    "fullAddress": "5501 McKinley Ave, Tacoma, WA 98404",
    "geocoded": true
  },
  {
    "id": 404,
    "address": "4329 S G St",
    "latitude": 47.2173225,
    "longitude": -122.4402738,
    "city": "Tacoma",
    "state": "WA",
    "zipCode": "98418",
    "fullAddress": "4329 S G St, Tacoma, WA 98418",
    "geocoded": true
  },
  {
    "id": 405,
    "address": "4024 Fawcett Ave",
    "latitude": 47.2199545,
    "longitude": -122.437869,
    "city": "Tacoma",
    "state": "WA",
    "zipCode": "98418",
    "fullAddress": "4024 Fawcett Ave, Tacoma, WA 98418",
    "geocoded": true
  },
  {
    "id": 406,
    "address": "5911 S Park Ave",
    "latitude": 47.2032214,
    "longitude": -122.4415339,
    "city": "Tacoma",
    "state": "WA",
    "zipCode": "98408",
    "fullAddress": "5911 S Park Ave, Tacoma, WA 98408",
    "geocoded": true
  },
  {
    "id": 407,
    "address": "7015 Homestead Ave",
    "latitude": 47.193123,
    "longitude": -122.400291,
    "city": "Tacoma",
    "state": "WA",
    "zipCode": "98404",
    "fullAddress": "7015 Homestead Ave, Tacoma, WA 98404",
    "geocoded": true
  },
  {
    "id": 408,
    "address": "10706 Broadway Ave S",
    "latitude": 47.22872618628536,
    "longitude": -122.44821858831598,
    "city": "Tacoma",
    "state": "WA",
    "zipCode": "10706",
    "fullAddress": "10706 Broadway Ave S, Tacoma, WA 98444",
    "geocoded": false
  },
  {
    "id": 409,
    "address": "10405 Sheridan Ave S",
    "latitude": 47.1629022,
    "longitude": -122.4526346,
    "city": "Tacoma",
    "state": "WA",
    "zipCode": "10405",
    "fullAddress": "10405 Sheridan Ave S, Tacoma, WA 98444",
    "geocoded": true
  },
  {
    "id": 410,
    "address": "1006 91st St E",
    "latitude": 47.1743336,
    "longitude": -122.4169007,
    "city": "Tacoma",
    "state": "WA",
    "zipCode": "98445",
    "fullAddress": "1006 91st St E, Tacoma, WA 98445",
    "geocoded": true
  },
  {
    "id": 411,
    "address": "8518 Golden Given Rd E",
    "latitude": 47.271182024243636,
    "longitude": -122.45417645399039,
    "city": "Tacoma",
    "state": "WA",
    "zipCode": "98445",
    "fullAddress": "8518 Golden Given Rd E, Tacoma, WA 98445",
    "geocoded": false
  },
  {
    "id": 412,
    "address": "1251 Waller Rd E",
    "latitude": 47.2595293429821,
    "longitude": -122.44450573394306,
    "city": "Tacoma",
    "state": "WA",
    "zipCode": "98446",
    "fullAddress": "1251 Waller Rd E, Tacoma, WA 98446",
    "geocoded": false
  },
  {
    "id": 413,
    "address": "3109 138th St E",
    "latitude": 47.27695778849916,
    "longitude": -122.4370898637669,
    "city": "Tacoma",
    "state": "WA",
    "zipCode": "98446",
    "fullAddress": "3109 138th St E, Tacoma, WA 98446",
    "geocoded": false
  },
  {
    "id": 414,
    "address": "803 149th St Ct E",
    "latitude": 47.257715714234365,
    "longitude": -122.43553387596013,
    "city": "Tacoma",
    "state": "WA",
    "zipCode": "98445",
    "fullAddress": "803 149th St Ct E, Tacoma, WA 98445",
    "geocoded": false
  },
  {
    "id": 415,
    "address": "172 S Wheeler St",
    "latitude": 47.26843608765267,
    "longitude": -122.45599540790249,
    "city": "Tacoma",
    "state": "WA",
    "zipCode": "98444",
    "fullAddress": "172 S Wheeler St, Tacoma, WA 98444",
    "geocoded": false
  },
  {
    "id": 416,
    "address": "208 66th Ave E",
    "latitude": 47.24300915027015,
    "longitude": -122.45673123837926,
    "city": "Tacoma",
    "state": "WA",
    "zipCode": "98424",
    "fullAddress": "208 66th Ave E, Tacoma, WA 98424",
    "geocoded": false
  },
  {
    "id": 417,
    "address": "9025 33rd St E",
    "latitude": 47.2276005,
    "longitude": -122.3084534,
    "city": "Edgewood",
    "state": "WA",
    "zipCode": "98371",
    "fullAddress": "9025 33rd St E, Edgewood, WA 98371",
    "geocoded": true
  },
  {
    "id": 418,
    "address": "5416 Edgewood Dr E",
    "latitude": 47.2082409,
    "longitude": -122.2524341,
    "city": "Edgewood",
    "state": "WA",
    "zipCode": "98372",
    "fullAddress": "5416 Edgewood Dr E, Edgewood, WA 98372",
    "geocoded": true
  },
  {
    "id": 419,
    "address": "514 Kincaid Ave",
    "latitude": 47.1979082,
    "longitude": -122.2418983,
    "city": "Sumner",
    "state": "WA",
    "zipCode": "98390",
    "fullAddress": "514 Kincaid Ave, Sumner, WA 98390",
    "geocoded": true
  },
  {
    "id": 420,
    "address": "6804 47th Ave E",
    "latitude": 47.2446981,
    "longitude": -122.3661324,
    "city": "Tacoma",
    "state": "WA",
    "zipCode": "98443",
    "fullAddress": "6804 47th Ave E, Tacoma, WA 98443",
    "geocoded": true
  },
  {
    "id": 421,
    "address": "6312 80th St E",
    "latitude": 47.1843968,
    "longitude": -122.2383023,
    "city": "Puyallup",
    "state": "WA",
    "zipCode": "98371",
    "fullAddress": "6312 80th St E, Puyallup, WA 98371",
    "geocoded": true
  },
  {
    "id": 422,
    "address": "6303 96th St E",
    "latitude": 47.2367663347157,
    "longitude": -122.46352019457771,
    "city": "Puyallup",
    "state": "WA",
    "zipCode": "98371",
    "fullAddress": "6303 96th St E, Puyallup, WA 98371",
    "geocoded": false
  },
  {
    "id": 423,
    "address": "504 7th St SW",
    "latitude": 47.1879881,
    "longitude": -122.3029831,
    "city": "Puyallup",
    "state": "WA",
    "zipCode": "98371",
    "fullAddress": "504 7th St SW, Puyallup, WA 98371",
    "geocoded": true
  },
  {
    "id": 424,
    "address": "508 5th St NE",
    "latitude": 47.19599,
    "longitude": -122.28778,
    "city": "Puyallup",
    "state": "WA",
    "zipCode": "98372",
    "fullAddress": "508 5th St NE, Puyallup, WA 98372",
    "geocoded": true
  },
  {
    "id": 425,
    "address": "19932 90th Av Ct E",
    "latitude": 47.24443937335037,
    "longitude": -122.44210370737359,
    "city": "Graham",
    "state": "WA",
    "zipCode": "19932",
    "fullAddress": "19932 90th Av Ct E, Graham, WA 98338",
    "geocoded": false
  },
  {
    "id": 426,
    "address": "4226 40th Ave NE",
    "latitude": 47.2959778,
    "longitude": -122.3943266,
    "city": "Tacoma",
    "state": "WA",
    "zipCode": "98422",
    "fullAddress": "4226 40th Ave NE, Tacoma, WA 98422",
    "geocoded": true
  },
  {
    "id": 427,
    "address": "1902 68th Ave NE",
    "latitude": 47.2736478,
    "longitude": -122.3563944,
    "city": "Tacoma",
    "state": "WA",
    "zipCode": "98422",
    "fullAddress": "1902 68th Ave NE, Tacoma, WA 98422",
    "geocoded": true
  },
  {
    "id": 428,
    "address": "3515 Shorecliff Dr NE",
    "latitude": 47.2895987,
    "longitude": -122.4037217,
    "city": "Tacoma",
    "state": "WA",
    "zipCode": "98422",
    "fullAddress": "3515 Shorecliff Dr NE, Tacoma, WA 98422",
    "geocoded": true
  },
  {
    "id": 429,
    "address": "4615 29th Ave NE",
    "latitude": 47.2990159,
    "longitude": -122.4078617,
    "city": "Tacoma",
    "state": "WA",
    "zipCode": "98422",
    "fullAddress": "4615 29th Ave NE, Tacoma, WA 98422",
    "geocoded": true
  },
  {
    "id": 430,
    "address": "2521 56th Ave NE",
    "latitude": 47.2794972,
    "longitude": -122.3726152,
    "city": "Tacoma",
    "state": "WA",
    "zipCode": "98422",
    "fullAddress": "2521 56th Ave NE, Tacoma, WA 98422",
    "geocoded": true
  },
  {
    "id": 431,
    "address": "5446 Hyada Blvd NE",
    "latitude": 47.3065805,
    "longitude": -122.4361566,
    "city": "Tacoma",
    "state": "WA",
    "zipCode": "98422",
    "fullAddress": "5446 Hyada Blvd NE, Tacoma, WA 98422",
    "geocoded": true
  },
  {
    "id": 432,
    "address": "5331 Hyada Blvd NE",
    "latitude": 47.3054109,
    "longitude": -122.4398034,
    "city": "Tacoma",
    "state": "WA",
    "zipCode": "98422",
    "fullAddress": "5331 Hyada Blvd NE, Tacoma, WA 98422",
    "geocoded": true
  },
  {
    "id": 433,
    "address": "171 49th St NE",
    "latitude": 47.3008186,
    "longitude": -122.4256077,
    "city": "Tacoma",
    "state": "WA",
    "zipCode": "98422",
    "fullAddress": "171 49th St NE, Tacoma, WA 98422",
    "geocoded": true
  },
  {
    "id": 434,
    "address": "545 Hyada Blvd NE",
    "latitude": 47.24214320096816,
    "longitude": -122.43998621912584,
    "city": "Tacoma",
    "state": "WA",
    "zipCode": "98422",
    "fullAddress": "545 Hyada Blvd NE, Tacoma, WA 98422",
    "geocoded": false
  },
  {
    "id": 435,
    "address": "672 Soundview Dr NE",
    "latitude": 47.26317619490411,
    "longitude": -122.4315398919455,
    "city": "Tacoma",
    "state": "WA",
    "zipCode": "98422",
    "fullAddress": "672 Soundview Dr NE, Tacoma, WA 98422",
    "geocoded": false
  },
  {
    "id": 436,
    "address": "19607 12th Av Ct E",
    "latitude": 47.27094773606549,
    "longitude": -122.46337606712994,
    "city": "Spanaway",
    "state": "WA",
    "zipCode": "19607",
    "fullAddress": "19607 12th Av Ct E, Spanaway, WA 98387",
    "geocoded": false
  },
  {
    "id": 437,
    "address": "3516 185th St Ct E",
    "latitude": 47.23507975438909,
    "longitude": -122.42587579962255,
    "city": "Tacoma",
    "state": "WA",
    "zipCode": "98446",
    "fullAddress": "3516 185th St Ct E, Tacoma, WA 98446",
    "geocoded": false
  },
  {
    "id": 438,
    "address": "87 18th Ave",
    "latitude": 47.2585804,
    "longitude": -122.3102885,
    "city": "Milton",
    "state": "WA",
    "zipCode": "98354",
    "fullAddress": "87 18th Ave, Milton, WA 98354",
    "geocoded": true
  },
  {
    "id": 439,
    "address": "19706 99th St Ct E",
    "latitude": 47.1667728,
    "longitude": -122.1683862,
    "city": "Bonney Lake",
    "state": "WA",
    "zipCode": "19706",
    "fullAddress": "19706 99th St Ct E, Bonney Lake, WA 98391",
    "geocoded": true
  },
  {
    "id": 440,
    "address": "13901 197th Ave E",
    "latitude": 47.1660269,
    "longitude": -122.1680147,
    "city": "Bonney Lake",
    "state": "WA",
    "zipCode": "13901",
    "fullAddress": "13901 197th Ave E, Bonney Lake, WA 98391",
    "geocoded": true
  },
  {
    "id": 441,
    "address": "13829 197th Ave E",
    "latitude": 47.1660269,
    "longitude": -122.1680147,
    "city": "Bonney Lake",
    "state": "WA",
    "zipCode": "13829",
    "fullAddress": "13829 197th Ave E, Bonney Lake, WA 98391",
    "geocoded": true
  },
  {
    "id": 442,
    "address": "4733 179th Ave E",
    "latitude": 47.2439355,
    "longitude": -122.1913322,
    "city": "Lake Tapps",
    "state": "WA",
    "zipCode": "98391",
    "fullAddress": "4733 179th Ave E, Lake Tapps, WA 98391",
    "geocoded": true
  },
  {
    "id": 443,
    "address": "818 SW 345th St",
    "latitude": 47.2935449,
    "longitude": -122.3452852,
    "city": "Federal Way",
    "state": "WA",
    "zipCode": "98023",
    "fullAddress": "818 SW 345th St, Federal Way, WA 98023",
    "geocoded": true
  },
  {
    "id": 444,
    "address": "31212 3rd Ave SW",
    "latitude": 47.3220352,
    "longitude": -122.3381519,
    "city": "Federal Way",
    "state": "WA",
    "zipCode": "31212",
    "fullAddress": "31212 3rd Ave SW, Federal Way, WA 98023",
    "geocoded": true
  },
  {
    "id": 445,
    "address": "506 SW 336th St",
    "latitude": 47.3013809,
    "longitude": -122.3409177,
    "city": "Federal Way",
    "state": "WA",
    "zipCode": "98023",
    "fullAddress": "506 SW 336th St, Federal Way, WA 98023",
    "geocoded": true
  },
  {
    "id": 446,
    "address": "3551 28th Ave S",
    "latitude": 47.24147947436779,
    "longitude": -122.45254600574364,
    "city": "Roy",
    "state": "WA",
    "zipCode": "98580",
    "fullAddress": "3551 28th Ave S, Roy, WA 98580",
    "geocoded": false
  },
  {
    "id": 447,
    "address": "116 Eagle Crest Place",
    "latitude": 47.5320709,
    "longitude": -122.654179,
    "city": "Port Orchard",
    "state": "WA",
    "zipCode": "98366",
    "fullAddress": "116 Eagle Crest Place, Port Orchard, WA 98366",
    "geocoded": true
  },
  {
    "id": 448,
    "address": "4509 27th Ct SE",
    "latitude": 47.0227103,
    "longitude": -122.8251522,
    "city": "Lacey",
    "state": "WA",
    "zipCode": "98503",
    "fullAddress": "4509 27th Ct SE, Lacey, WA 98503",
    "geocoded": true
  },
  {
    "id": 449,
    "address": "8433 54th Ct SE",
    "latitude": 46.9991039,
    "longitude": -122.8030552,
    "city": "Lacey",
    "state": "WA",
    "zipCode": "98513",
    "fullAddress": "8433 54th Ct SE, Lacey, WA 98513",
    "geocoded": true
  },
  {
    "id": 450,
    "address": "2805 122nd St SW",
    "latitude": 47.244612339357765,
    "longitude": -122.42992424905135,
    "city": "Everett",
    "state": "WA",
    "zipCode": "98204",
    "fullAddress": "2805 122nd St SW, Everett, WA 98204",
    "geocoded": false
  },
  {
    "id": 451,
    "address": "2817 E Sequim Bay Rd",
    "latitude": 47.26942741005138,
    "longitude": -122.46393869914257,
    "city": "Sequim",
    "state": "WA",
    "zipCode": "98382",
    "fullAddress": "2817 E Sequim Bay Rd, Sequim, WA 98382",
    "geocoded": false
  }
]